<?xml version="1.0" encoding="UTF-8"?>
<gpx creator="Garmin Connect" version="1.1"
  xsi:schemaLocation="http://www.topografix.com/GPX/1/1 http://www.topografix.com/GPX/11.xsd"
  xmlns:ns3="http://www.garmin.com/xmlschemas/TrackPointExtension/v1"
  xmlns="http://www.topografix.com/GPX/1/1"
  xmlns:xsi="http://www.w3.org/2001/XMLSchema-instance" xmlns:ns2="http://www.garmin.com/xmlschemas/GpxExtensions/v3">
  <metadata>
    <name>2026서울레이스21k</name>
    <link href="connect.garmin.com">
      <text>Garmin Connect</text>
    </link>
    <time>2026-10-05T16:41:58.000Z</time>
  </metadata>
  <trk>
    <name>2026서울레이스21k</name>
    <trkseg>
      <trkpt lat="37.56868997588754" lon="126.97721997275949">
        <ele>45.48</ele>
      </trkpt>
      <trkpt lat="37.568969344720244" lon="126.97721745818853">
        <ele>43.76</ele>
      </trkpt>
      <trkpt lat="37.56924997083843" lon="126.97721494361758">
        <ele>42.99</ele>
      </trkpt>
      <trkpt lat="37.569529339671135" lon="126.97721242904663">
        <ele>42.15</ele>
      </trkpt>
      <trkpt lat="37.56980996578932" lon="126.97720999829471">
        <ele>41.27</ele>
      </trkpt>
      <trkpt lat="37.56976998411119" lon="126.97720999829471">
        <ele>40.94</ele>
      </trkpt>
      <trkpt lat="37.56980996578932" lon="126.97720999829471">
        <ele>40.79</ele>
      </trkpt>
      <trkpt lat="37.56989998742938" lon="126.97728996165097">
        <ele>41.09</ele>
      </trkpt>
      <trkpt lat="37.569869980216026" lon="126.97726992890239">
        <ele>41.45</ele>
      </trkpt>
      <trkpt lat="37.570019932463765" lon="126.97739993222058">
        <ele>42.19</ele>
      </trkpt>
      <trkpt lat="37.57013996131718" lon="126.97754996828735">
        <ele>43.15</ele>
      </trkpt>
      <trkpt lat="37.57013996131718" lon="126.97769992053509">
        <ele>44.12</ele>
      </trkpt>
      <trkpt lat="37.57013996131718" lon="126.97773998603225">
        <ele>44.98</ele>
      </trkpt>
      <trkpt lat="37.57013828493655" lon="126.97807568125427">
        <ele>46.12</ele>
      </trkpt>
      <trkpt lat="37.57013660855591" lon="126.97841137647629">
        <ele>47.04</ele>
      </trkpt>
      <trkpt lat="37.57013493217528" lon="126.97874497622252">
        <ele>47.4</ele>
      </trkpt>
      <trkpt lat="37.570133255794644" lon="126.97908067144454">
        <ele>47.39</ele>
      </trkpt>
      <trkpt lat="37.57013157941401" lon="126.97941636666656">
        <ele>47.65</ele>
      </trkpt>
      <trkpt lat="37.57012998685241" lon="126.97974996641278">
        <ele>48.24</ele>
      </trkpt>
      <trkpt lat="37.57012998685241" lon="126.97970998473465">
        <ele>48.85</ele>
      </trkpt>
      <trkpt lat="37.57012831047177" lon="126.98009245097637">
        <ele>49.79</ele>
      </trkpt>
      <trkpt lat="37.57012663409114" lon="126.98047332465649">
        <ele>51.23</ele>
      </trkpt>
      <trkpt lat="37.570124957710505" lon="126.9808557908982">
        <ele>53.18</ele>
      </trkpt>
      <trkpt lat="37.57012328132987" lon="126.98123666457832">
        <ele>54.79</ele>
      </trkpt>
      <trkpt lat="37.570121604949236" lon="126.981619047001">
        <ele>55.65</ele>
      </trkpt>
      <trkpt lat="37.5701199285686" lon="126.98199992068112">
        <ele>57.1</ele>
      </trkpt>
      <trkpt lat="37.5701199285686" lon="126.98195993900299">
        <ele>58.0</ele>
      </trkpt>
      <trkpt lat="37.57012998685241" lon="126.98235078714788">
        <ele>59.56</ele>
      </trkpt>
      <trkpt lat="37.57013996131718" lon="126.98273995891213">
        <ele>60.55</ele>
      </trkpt>
      <trkpt lat="37.57013996131718" lon="126.98277994059026">
        <ele>60.97</ele>
      </trkpt>
      <trkpt lat="37.570144990459085" lon="126.98307808488607">
        <ele>60.9</ele>
      </trkpt>
      <trkpt lat="37.570149935781956" lon="126.98337497189641">
        <ele>61.45</ele>
      </trkpt>
      <trkpt lat="37.57015496492386" lon="126.98367311619222">
        <ele>61.59</ele>
      </trkpt>
      <trkpt lat="37.57015999406576" lon="126.98396991938353">
        <ele>60.77</ele>
      </trkpt>
      <trkpt lat="37.57015999406576" lon="126.9839399959892">
        <ele>59.92</ele>
      </trkpt>
      <trkpt lat="37.570153288543224" lon="126.98424057103693">
        <ele>57.1</ele>
      </trkpt>
      <trkpt lat="37.57014658302069" lon="126.9845412299037">
        <ele>54.13</ele>
      </trkpt>
      <trkpt lat="37.57013996131718" lon="126.98483996093273">
        <ele>51.57</ele>
      </trkpt>
      <trkpt lat="37.570133255794644" lon="126.9851406197995">
        <ele>49.67</ele>
      </trkpt>
      <trkpt lat="37.57012663409114" lon="126.98544119484723">
        <ele>47.69</ele>
      </trkpt>
      <trkpt lat="37.5701199285686" lon="126.98573992587626">
        <ele>45.68</ele>
      </trkpt>
      <trkpt lat="37.57013996131718" lon="126.98596036992967">
        <ele>43.83</ele>
      </trkpt>
      <trkpt lat="37.57015999406576" lon="126.98617997579277">
        <ele>42.12</ele>
      </trkpt>
      <trkpt lat="37.57015999406576" lon="126.98612993583083">
        <ele>40.61</ele>
      </trkpt>
      <trkpt lat="37.570163263008" lon="126.9864890165627">
        <ele>39.14</ele>
      </trkpt>
      <trkpt lat="37.57016661576927" lon="126.98684809729457">
        <ele>37.95</ele>
      </trkpt>
      <trkpt lat="37.570169968530536" lon="126.98720499873161">
        <ele>36.94</ele>
      </trkpt>
      <trkpt lat="37.570173321291804" lon="126.98756407946348">
        <ele>36.22</ele>
      </trkpt>
      <trkpt lat="37.57017667405307" lon="126.98792316019535">
        <ele>35.54</ele>
      </trkpt>
      <trkpt lat="37.57017994299531" lon="126.98827997781336">
        <ele>34.92</ele>
      </trkpt>
      <trkpt lat="37.57017994299531" lon="126.98830998502672">
        <ele>34.33</ele>
      </trkpt>
      <trkpt lat="37.570190001279116" lon="126.98861056007445">
        <ele>33.65</ele>
      </trkpt>
      <trkpt lat="37.57019997574389" lon="126.98891121894121">
        <ele>32.9</ele>
      </trkpt>
      <trkpt lat="37.570209950208664" lon="126.98920994997025">
        <ele>32.33</ele>
      </trkpt>
      <trkpt lat="37.570209950208664" lon="126.9892399571836">
        <ele>31.88</ele>
      </trkpt>
      <trkpt lat="37.57022000849247" lon="126.9894955214113">
        <ele>31.56</ele>
      </trkpt>
      <trkpt lat="37.570229982957244" lon="126.98974999599159">
        <ele>31.17</ele>
      </trkpt>
      <trkpt lat="37.57025672122836" lon="126.9900706037879">
        <ele>30.74</ele>
      </trkpt>
      <trkpt lat="37.57028337568045" lon="126.99039129540324">
        <ele>30.38</ele>
      </trkpt>
      <trkpt lat="37.5703099463135" lon="126.99070997536182">
        <ele>30.16</ele>
      </trkpt>
      <trkpt lat="37.5703099463135" lon="126.99073998257518">
        <ele>29.9</ele>
      </trkpt>
      <trkpt lat="37.57033333182335" lon="126.9910873286426">
        <ele>29.57</ele>
      </trkpt>
      <trkpt lat="37.5703567173332" lon="126.99143467471004">
        <ele>29.14</ele>
      </trkpt>
      <trkpt lat="37.57037993520498" lon="126.99177992530167">
        <ele>28.83</ele>
      </trkpt>
      <trkpt lat="37.57037993520498" lon="126.99180993251503">
        <ele>28.64</ele>
      </trkpt>
      <trkpt lat="37.570396699011326" lon="126.99209718033671">
        <ele>28.59</ele>
      </trkpt>
      <trkpt lat="37.57041337899864" lon="126.99238451197743">
        <ele>28.61</ele>
      </trkpt>
      <trkpt lat="37.57042997516692" lon="126.99266999959946">
        <ele>28.52</ele>
      </trkpt>
      <trkpt lat="37.57043994963169" lon="126.99297728016973">
        <ele>28.4</ele>
      </trkpt>
      <trkpt lat="37.5704500079155" lon="126.99328456074">
        <ele>28.27</ele>
      </trkpt>
      <trkpt lat="37.57045998238027" lon="126.99358999729156">
        <ele>28.15</ele>
      </trkpt>
      <trkpt lat="37.57045998238027" lon="126.99353995732963">
        <ele>28.11</ele>
      </trkpt>
      <trkpt lat="37.570467442274094" lon="126.99386064894497">
        <ele>28.15</ele>
      </trkpt>
      <trkpt lat="37.57047498598695" lon="126.99417999945581">
        <ele>28.26</ele>
      </trkpt>
      <trkpt lat="37.57048244588077" lon="126.99450060725212">
        <ele>28.24</ele>
      </trkpt>
      <trkpt lat="37.570489989593625" lon="126.99481995776296">
        <ele>28.25</ele>
      </trkpt>
      <trkpt lat="37.570506669580936" lon="126.99512388557196">
        <ele>28.26</ele>
      </trkpt>
      <trkpt lat="37.57052334956825" lon="126.99542789719999">
        <ele>28.14</ele>
      </trkpt>
      <trkpt lat="37.57053994573653" lon="126.99572998099029">
        <ele>28.04</ele>
      </trkpt>
      <trkpt lat="37.57053994573653" lon="126.99574992991984">
        <ele>28.03</ele>
      </trkpt>
      <trkpt lat="37.57055997848511" lon="126.99608562514186">
        <ele>27.99</ele>
      </trkpt>
      <trkpt lat="37.570579927414656" lon="126.99641997925937">
        <ele>27.88</ele>
      </trkpt>
      <trkpt lat="37.57061337120831" lon="126.99675064533949">
        <ele>27.7</ele>
      </trkpt>
      <trkpt lat="37.57064673118293" lon="126.9970813114196">
        <ele>27.69</ele>
      </trkpt>
      <trkpt lat="37.57067992351949" lon="126.99740996584296">
        <ele>27.75</ele>
      </trkpt>
      <trkpt lat="37.57067992351949" lon="126.99744994752109">
        <ele>27.84</ele>
      </trkpt>
      <trkpt lat="37.570684952661395" lon="126.99775555171072">
        <ele>27.94</ele>
      </trkpt>
      <trkpt lat="37.5706899818033" lon="126.99805998243392">
        <ele>28.16</ele>
      </trkpt>
      <trkpt lat="37.57070749998093" lon="126.99840565212071">
        <ele>28.58</ele>
      </trkpt>
      <trkpt lat="37.57072493433952" lon="126.998749980703">
        <ele>28.96</ele>
      </trkpt>
      <trkpt lat="37.57074253633618" lon="126.99909565038979">
        <ele>29.12</ele>
      </trkpt>
      <trkpt lat="37.57075997069478" lon="126.99943997897208">
        <ele>29.42</ele>
      </trkpt>
      <trkpt lat="37.57075997069478" lon="126.99938993901014">
        <ele>29.41</ele>
      </trkpt>
      <trkpt lat="37.57078335620463" lon="126.99975622817874">
        <ele>29.74</ele>
      </trkpt>
      <trkpt lat="37.57080674171448" lon="127.00012260116637">
        <ele>29.39</ele>
      </trkpt>
      <trkpt lat="37.57082995958626" lon="127.00048662722111">
        <ele>29.02</ele>
      </trkpt>
      <trkpt lat="37.57085334509611" lon="127.0008529163897">
        <ele>28.77</ele>
      </trkpt>
      <trkpt lat="37.57087673060596" lon="127.0012192055583">
        <ele>28.55</ele>
      </trkpt>
      <trkpt lat="37.570899948477745" lon="127.00158331543207">
        <ele>28.34</ele>
      </trkpt>
      <trkpt lat="37.570923333987594" lon="127.00194960460067">
        <ele>28.17</ele>
      </trkpt>
      <trkpt lat="37.57094671949744" lon="127.00231589376926">
        <ele>28.0</ele>
      </trkpt>
      <trkpt lat="37.57096993736923" lon="127.002679919824">
        <ele>27.77</ele>
      </trkpt>
      <trkpt lat="37.57096993736923" lon="127.00271998532116">
        <ele>27.57</ele>
      </trkpt>
      <trkpt lat="37.57097496651113" lon="127.00304394587874">
        <ele>27.29</ele>
      </trkpt>
      <trkpt lat="37.57097999565303" lon="127.00336799025536">
        <ele>26.98</ele>
      </trkpt>
      <trkpt lat="37.570984940975904" lon="127.00368993915617">
        <ele>26.81</ele>
      </trkpt>
      <trkpt lat="37.57098997011781" lon="127.00401398353279">
        <ele>26.82</ele>
      </trkpt>
      <trkpt lat="37.57099499925971" lon="127.00433794409037">
        <ele>26.78</ele>
      </trkpt>
      <trkpt lat="37.57099994458258" lon="127.00465997681022">
        <ele>26.75</ele>
      </trkpt>
      <trkpt lat="37.57099994458258" lon="127.00468998402357">
        <ele>26.74</ele>
      </trkpt>
      <trkpt lat="37.57101167924702" lon="127.00498058460653">
        <ele>26.78</ele>
      </trkpt>
      <trkpt lat="37.57102333009243" lon="127.00527118518949">
        <ele>26.85</ele>
      </trkpt>
      <trkpt lat="37.57103498093784" lon="127.00555994175375">
        <ele>26.85</ele>
      </trkpt>
      <trkpt lat="37.57104663178325" lon="127.0058505423367">
        <ele>26.85</ele>
      </trkpt>
      <trkpt lat="37.57105836644769" lon="127.00614114291966">
        <ele>26.94</ele>
      </trkpt>
      <trkpt lat="37.571069933474064" lon="127.00642998330295">
        <ele>27.11</ele>
      </trkpt>
      <trkpt lat="37.571069933474064" lon="127.00670382007957">
        <ele>27.3</ele>
      </trkpt>
      <trkpt lat="37.571069933474064" lon="127.00697774067521">
        <ele>27.54</ele>
      </trkpt>
      <trkpt lat="37.571069933474064" lon="127.00724998489022">
        <ele>27.74</ele>
      </trkpt>
      <trkpt lat="37.571069933474064" lon="127.00720991939306">
        <ele>27.85</ele>
      </trkpt>
      <trkpt lat="37.571066580712795" lon="127.00749725103378">
        <ele>28.11</ele>
      </trkpt>
      <trkpt lat="37.57106331177056" lon="127.00778449885547">
        <ele>28.31</ele>
      </trkpt>
      <trkpt lat="37.57105995900929" lon="127.0080699864775">
        <ele>28.3</ele>
      </trkpt>
      <trkpt lat="37.57108502089977" lon="127.00836058706045">
        <ele>28.1</ele>
      </trkpt>
      <trkpt lat="37.571109998971224" lon="127.00864993035793">
        <ele>27.96</ele>
      </trkpt>
      <trkpt lat="37.571089966222644" lon="127.00872997753322">
        <ele>27.96</ele>
      </trkpt>
      <trkpt lat="37.57105995900929" lon="127.00887992978096">
        <ele>27.93</ele>
      </trkpt>
      <trkpt lat="37.57096993736923" lon="127.00906994752586">
        <ele>27.93</ele>
      </trkpt>
      <trkpt lat="37.57084504701197" lon="127.00919986702502">
        <ele>27.87</ele>
      </trkpt>
      <trkpt lat="37.57071998901665" lon="127.00932995416224">
        <ele>27.8</ele>
      </trkpt>
      <trkpt lat="37.570619992911816" lon="127.00938996858895">
        <ele>27.79</ele>
      </trkpt>
      <trkpt lat="37.570460233837366" lon="127.00946984812617">
        <ele>27.78</ele>
      </trkpt>
      <trkpt lat="37.570299971848726" lon="127.0095499791205">
        <ele>27.83</ele>
      </trkpt>
      <trkpt lat="37.570149935781956" lon="127.00956992805004">
        <ele>27.88</ele>
      </trkpt>
      <trkpt lat="37.57010995410383" lon="127.00956992805004">
        <ele>27.88</ele>
      </trkpt>
      <trkpt lat="37.56994994357228" lon="127.00958996079862">
        <ele>27.89</ele>
      </trkpt>
      <trkpt lat="37.56995991803706" lon="127.00972993858159">
        <ele>27.86</ele>
      </trkpt>
      <trkpt lat="37.5700699724257" lon="127.00971996411681">
        <ele>27.82</ele>
      </trkpt>
      <trkpt lat="37.57007994689047" lon="127.00971996411681">
        <ele>27.78</ele>
      </trkpt>
      <trkpt lat="37.570319920778275" lon="127.00968995690346">
        <ele>27.65</ele>
      </trkpt>
      <trkpt lat="37.57048470899463" lon="127.00959507375956">
        <ele>27.51</ele>
      </trkpt>
      <trkpt lat="37.57064991630614" lon="127.00949993915856">
        <ele>27.43</ele>
      </trkpt>
      <trkpt lat="37.57085636258125" lon="127.00937680900097">
        <ele>27.38</ele>
      </trkpt>
      <trkpt lat="37.571062725037336" lon="127.00925359502435">
        <ele>27.43</ele>
      </trkpt>
      <trkpt lat="37.57126992568374" lon="127.00912996195257">
        <ele>27.45</ele>
      </trkpt>
      <trkpt lat="37.57133999839425" lon="127.00896995142102">
        <ele>27.42</ele>
      </trkpt>
      <trkpt lat="37.57125995121896" lon="127.00872997753322">
        <ele>27.33</ele>
      </trkpt>
      <trkpt lat="37.57120999507606" lon="127.00848991982639">
        <ele>27.33</ele>
      </trkpt>
      <trkpt lat="37.571199936792254" lon="127.0084199309349">
        <ele>27.32</ele>
      </trkpt>
      <trkpt lat="37.57119490765035" lon="127.00812933035195">
        <ele>27.45</ele>
      </trkpt>
      <trkpt lat="37.57118996232748" lon="127.00783998705447">
        <ele>27.47</ele>
      </trkpt>
      <trkpt lat="37.57118493318558" lon="127.00754938647151">
        <ele>27.28</ele>
      </trkpt>
      <trkpt lat="37.571179987862706" lon="127.007259959355">
        <ele>27.03</ele>
      </trkpt>
      <trkpt lat="37.571179987862706" lon="127.00728996656835">
        <ele>26.93</ele>
      </trkpt>
      <trkpt lat="37.571177473291755" lon="127.00694672763348">
        <ele>26.71</ele>
      </trkpt>
      <trkpt lat="37.5711749587208" lon="127.00660499744117">
        <ele>26.52</ele>
      </trkpt>
      <trkpt lat="37.57117244414985" lon="127.0062617585063">
        <ele>26.37</ele>
      </trkpt>
      <trkpt lat="37.5711699295789" lon="127.00591994449496">
        <ele>26.31</ele>
      </trkpt>
      <trkpt lat="37.5711699295789" lon="127.00590997003019">
        <ele>26.25</ele>
      </trkpt>
      <trkpt lat="37.571157440543175" lon="127.00555675663054">
        <ele>26.27</ele>
      </trkpt>
      <trkpt lat="37.57114495150745" lon="127.00520496815443">
        <ele>26.27</ele>
      </trkpt>
      <trkpt lat="37.571132462471724" lon="127.00485175475478">
        <ele>26.22</ele>
      </trkpt>
      <trkpt lat="37.571119973436" lon="127.00449996627867">
        <ele>26.21</ele>
      </trkpt>
      <trkpt lat="37.571119973436" lon="127.0044899918139">
        <ele>26.29</ele>
      </trkpt>
      <trkpt lat="37.571112429723144" lon="127.00416930019855">
        <ele>26.41</ele>
      </trkpt>
      <trkpt lat="37.57110496982932" lon="127.00384994968772">
        <ele>26.5</ele>
      </trkpt>
      <trkpt lat="37.57109742611647" lon="127.00352925807238">
        <ele>26.65</ele>
      </trkpt>
      <trkpt lat="37.571089966222644" lon="127.00320999138057">
        <ele>26.95</ele>
      </trkpt>
      <trkpt lat="37.571089966222644" lon="127.00319993309677">
        <ele>27.23</ele>
      </trkpt>
      <trkpt lat="37.571086613461375" lon="127.00287597253919">
        <ele>27.67</ele>
      </trkpt>
      <trkpt lat="37.57108326070011" lon="127.00255192816257">
        <ele>28.05</ele>
      </trkpt>
      <trkpt lat="37.57107999175787" lon="127.00222997926176">
        <ele>28.34</ele>
      </trkpt>
      <trkpt lat="37.57107999175787" lon="127.00225998647511">
        <ele>28.7</ele>
      </trkpt>
      <trkpt lat="37.57107999175787" lon="127.0019499398768">
        <ele>29.06</ele>
      </trkpt>
      <trkpt lat="37.57103992626071" lon="127.00156998820603">
        <ele>29.49</ele>
      </trkpt>
      <trkpt lat="37.57103498093784" lon="127.00133948586881">
        <ele>29.87</ele>
      </trkpt>
      <trkpt lat="37.571029951795936" lon="127.00110998935997">
        <ele>30.24</ele>
      </trkpt>
      <trkpt lat="37.57101997733116" lon="127.00105994939804">
        <ele>30.5</ele>
      </trkpt>
      <trkpt lat="37.57100488990545" lon="127.00066918507218">
        <ele>30.79</ele>
      </trkpt>
      <trkpt lat="37.57098997011781" lon="127.0002799294889">
        <ele>31.01</ele>
      </trkpt>
      <trkpt lat="37.57095996290445" lon="126.99993995949626">
        <ele>31.73</ele>
      </trkpt>
      <trkpt lat="37.57095996290445" lon="126.99996996670961">
        <ele>31.75</ele>
      </trkpt>
      <trkpt lat="37.570936577394605" lon="126.99963594786823">
        <ele>31.57</ele>
      </trkpt>
      <trkpt lat="37.570913191884756" lon="126.99930192902684">
        <ele>30.97</ele>
      </trkpt>
      <trkpt lat="37.57088997401297" lon="126.99896992184222">
        <ele>30.73</ele>
      </trkpt>
      <trkpt lat="37.57088997401297" lon="126.99890999123454">
        <ele>30.47</ele>
      </trkpt>
      <trkpt lat="37.57087329402566" lon="126.99862601235509">
        <ele>30.09</ele>
      </trkpt>
      <trkpt lat="37.57085653021932" lon="126.99834211729467">
        <ele>29.53</ele>
      </trkpt>
      <trkpt lat="37.57083993405104" lon="126.99805998243392">
        <ele>28.95</ele>
      </trkpt>
      <trkpt lat="37.57083993405104" lon="126.99801991693676">
        <ele>28.57</ele>
      </trkpt>
      <trkpt lat="37.57080489769578" lon="126.99764415621758">
        <ele>28.17</ele>
      </trkpt>
      <trkpt lat="37.570769945159554" lon="126.99726998806">
        <ele>27.83</ele>
      </trkpt>
      <trkpt lat="37.57075997069478" lon="126.99721994809806">
        <ele>27.51</ele>
      </trkpt>
      <trkpt lat="37.5707399379462" lon="126.99693940579891">
        <ele>27.23</ele>
      </trkpt>
      <trkpt lat="37.57071990519762" lon="126.99665877968073">
        <ele>27.09</ele>
      </trkpt>
      <trkpt lat="37.57069995626807" lon="126.99637999758124">
        <ele>27.02</ele>
      </trkpt>
      <trkpt lat="37.57067992351949" lon="126.99604178778827">
        <ele>26.91</ele>
      </trkpt>
      <trkpt lat="37.570659974589944" lon="126.99570491909981">
        <ele>26.69</ele>
      </trkpt>
      <trkpt lat="37.570639941841364" lon="126.99536679312587">
        <ele>26.53</ele>
      </trkpt>
      <trkpt lat="37.570619992911816" lon="126.9950299244374">
        <ele>26.51</ele>
      </trkpt>
      <trkpt lat="37.570599876344204" lon="126.99464913457632">
        <ele>26.49</ele>
      </trkpt>
      <trkpt lat="37.570579927414656" lon="126.99426993727684">
        <ele>26.51</ele>
      </trkpt>
      <trkpt lat="37.57057665847242" lon="126.99396265670657">
        <ele>26.33</ele>
      </trkpt>
      <trkpt lat="37.57057330571115" lon="126.9936553761363">
        <ele>26.22</ele>
      </trkpt>
      <trkpt lat="37.57056995294988" lon="126.99334993958473">
        <ele>26.33</ele>
      </trkpt>
      <trkpt lat="37.57055997848511" lon="126.99329998344183">
        <ele>26.41</ele>
      </trkpt>
      <trkpt lat="37.5705448910594" lon="126.9929592590779">
        <ele>26.59</ele>
      </trkpt>
      <trkpt lat="37.57052997127175" lon="126.99261995963752">
        <ele>26.73</ele>
      </trkpt>
      <trkpt lat="37.570514967665076" lon="126.9922792352736">
        <ele>26.84</ele>
      </trkpt>
      <trkpt lat="37.5704999640584" lon="126.99193993583322">
        <ele>26.86</ele>
      </trkpt>
      <trkpt lat="37.5704999640584" lon="126.99192996136844">
        <ele>27.08</ele>
      </trkpt>
      <trkpt lat="37.57048496045172" lon="126.99164774268866">
        <ele>27.34</ele>
      </trkpt>
      <trkpt lat="37.57046987302601" lon="126.99136544018984">
        <ele>27.81</ele>
      </trkpt>
      <trkpt lat="37.57045495323837" lon="126.99108498170972">
        <ele>28.32</ele>
      </trkpt>
      <trkpt lat="37.57043994963169" lon="126.9908026792109">
        <ele>28.76</ele>
      </trkpt>
      <trkpt lat="37.57042486220598" lon="126.99052046053112">
        <ele>29.13</ele>
      </trkpt>
      <trkpt lat="37.57040994241834" lon="126.99023991823196">
        <ele>29.56</ele>
      </trkpt>
      <trkpt lat="37.57040994241834" lon="126.99018996208906">
        <ele>30.07</ele>
      </trkpt>
      <trkpt lat="37.570393262431026" lon="126.98984588496387">
        <ele>30.66</ele>
      </trkpt>
      <trkpt lat="37.570376582443714" lon="126.98950189165771">
        <ele>31.25</ele>
      </trkpt>
      <trkpt lat="37.570359986275434" lon="126.98915999382734">
        <ele>31.83</ele>
      </trkpt>
      <trkpt lat="37.570359986275434" lon="126.98910995386541">
        <ele>32.53</ele>
      </trkpt>
      <trkpt lat="37.570339953526855" lon="126.98883938603103">
        <ele>33.4</ele>
      </trkpt>
      <trkpt lat="37.570319920778275" lon="126.9885699916631">
        <ele>34.38</ele>
      </trkpt>
      <trkpt lat="37.5703099463135" lon="126.98826178908348">
        <ele>35.36</ele>
      </trkpt>
      <trkpt lat="37.570299971848726" lon="126.98795492760837">
        <ele>36.17</ele>
      </trkpt>
      <trkpt lat="37.57028991356492" lon="126.98764680884778">
        <ele>37.11</ele>
      </trkpt>
      <trkpt lat="37.570279939100146" lon="126.98733994737267">
        <ele>37.99</ele>
      </trkpt>
      <trkpt lat="37.570279939100146" lon="126.98728999122977">
        <ele>39.02</ele>
      </trkpt>
      <trkpt lat="37.570279939100146" lon="126.98694926686585">
        <ele>40.05</ele>
      </trkpt>
      <trkpt lat="37.570279939100146" lon="126.98660996742547">
        <ele>41.14</ele>
      </trkpt>
      <trkpt lat="37.570279939100146" lon="126.98626924306154">
        <ele>42.38</ele>
      </trkpt>
      <trkpt lat="37.570279939100146" lon="126.98592994362116">
        <ele>43.58</ele>
      </trkpt>
      <trkpt lat="37.570279939100146" lon="126.98587998747826">
        <ele>44.76</ele>
      </trkpt>
      <trkpt lat="37.570277424529195" lon="126.98554923757911">
        <ele>46.0</ele>
      </trkpt>
      <trkpt lat="37.570274993777275" lon="126.98521999642253">
        <ele>47.23</ele>
      </trkpt>
      <trkpt lat="37.570272479206324" lon="126.98488924652338">
        <ele>48.22</ele>
      </trkpt>
      <trkpt lat="37.57026996463537" lon="126.98455992154777">
        <ele>49.68</ele>
      </trkpt>
      <trkpt lat="37.57026996463537" lon="126.98458992876112">
        <ele>50.6</ele>
      </trkpt>
      <trkpt lat="37.57026996463537" lon="126.98426261544228">
        <ele>52.51</ele>
      </trkpt>
      <trkpt lat="37.57026996463537" lon="126.98393530212343">
        <ele>54.86</ele>
      </trkpt>
      <trkpt lat="37.57026996463537" lon="126.98360991664231">
        <ele>55.51</ele>
      </trkpt>
      <trkpt lat="37.57026996463537" lon="126.98356993496418">
        <ele>55.72</ele>
      </trkpt>
      <trkpt lat="37.57026996463537" lon="126.98317917063832">
        <ele>54.47</ele>
      </trkpt>
      <trkpt lat="37.57026996463537" lon="126.98278999887407">
        <ele>54.33</ele>
      </trkpt>
      <trkpt lat="37.57027667015791" lon="126.98244927451015">
        <ele>53.8</ele>
      </trkpt>
      <trkpt lat="37.570283291861415" lon="126.98210855014622">
        <ele>52.83</ele>
      </trkpt>
      <trkpt lat="37.57028999738395" lon="126.98176992125809">
        <ele>51.53</ele>
      </trkpt>
      <trkpt lat="37.57028999738395" lon="126.98180998675525">
        <ele>50.85</ele>
      </trkpt>
      <trkpt lat="37.57029326632619" lon="126.98153941892087">
        <ele>50.06</ele>
      </trkpt>
      <trkpt lat="37.57029661908746" lon="126.9812688510865">
        <ele>49.31</ele>
      </trkpt>
      <trkpt lat="37.570299971848726" lon="126.98099995963275">
        <ele>48.51</ele>
      </trkpt>
      <trkpt lat="37.570279939100146" lon="126.98068429715931">
        <ele>47.55</ele>
      </trkpt>
      <trkpt lat="37.5702599901706" lon="126.98036997579038">
        <ele>46.64</ele>
      </trkpt>
      <trkpt lat="37.570254961028695" lon="126.98013947345316">
        <ele>46.0</ele>
      </trkpt>
      <trkpt lat="37.57024993188679" lon="126.97990997694433">
        <ele>45.34</ele>
      </trkpt>
      <trkpt lat="37.57024993188679" lon="126.97993998415768">
        <ele>44.8</ele>
      </trkpt>
      <trkpt lat="37.57025328464806" lon="126.97965768165886">
        <ele>44.24</ele>
      </trkpt>
      <trkpt lat="37.57025663740933" lon="126.97937546297908">
        <ele>43.85</ele>
      </trkpt>
      <trkpt lat="37.5702599901706" lon="126.97909492067993">
        <ele>43.74</ele>
      </trkpt>
      <trkpt lat="37.57026334293187" lon="126.97881270200014">
        <ele>43.85</ele>
      </trkpt>
      <trkpt lat="37.5702666118741" lon="126.97853048332036">
        <ele>43.97</ele>
      </trkpt>
      <trkpt lat="37.57026996463537" lon="126.9782499410212">
        <ele>43.95</ele>
      </trkpt>
      <trkpt lat="37.57026996463537" lon="126.97828992269933">
        <ele>43.98</ele>
      </trkpt>
      <trkpt lat="37.57026996463537" lon="126.97794425301254">
        <ele>43.97</ele>
      </trkpt>
      <trkpt lat="37.57026996463537" lon="126.97759992443025">
        <ele>44.13</ele>
      </trkpt>
      <trkpt lat="37.57026996463537" lon="126.9779306743294">
        <ele>44.21</ele>
      </trkpt>
      <trkpt lat="37.57026996463537" lon="126.97826134040952">
        <ele>44.46</ele>
      </trkpt>
      <trkpt lat="37.57026996463537" lon="126.97858999483287">
        <ele>44.58</ele>
      </trkpt>
      <trkpt lat="37.570272479206324" lon="126.9782366976142">
        <ele>44.83</ele>
      </trkpt>
      <trkpt lat="37.570274993777275" lon="126.97788499295712">
        <ele>44.95</ele>
      </trkpt>
      <trkpt lat="37.570277424529195" lon="126.97753169573843">
        <ele>45.26</ele>
      </trkpt>
      <trkpt lat="37.570279939100146" lon="126.97717999108136">
        <ele>45.34</ele>
      </trkpt>
      <trkpt lat="37.57026996463537" lon="126.97721997275949">
        <ele>45.55</ele>
      </trkpt>
      <trkpt lat="37.57012998685241" lon="126.97720999829471">
        <ele>45.58</ele>
      </trkpt>
      <trkpt lat="37.57013996131718" lon="126.97720999829471">
        <ele>45.74</ele>
      </trkpt>
      <trkpt lat="37.56987056694925" lon="126.97721159085631">
        <ele>45.63</ele>
      </trkpt>
      <trkpt lat="37.56960108876228" lon="126.97721326723695">
        <ele>45.8</ele>
      </trkpt>
      <trkpt lat="37.569329934194684" lon="126.97721494361758">
        <ele>46.07</ele>
      </trkpt>
      <trkpt lat="37.56906053982675" lon="126.97721661999822">
        <ele>46.04</ele>
      </trkpt>
      <trkpt lat="37.56879114545882" lon="126.97721829637885">
        <ele>46.13</ele>
      </trkpt>
      <trkpt lat="37.56851999089122" lon="126.97721997275949">
        <ele>46.59</ele>
      </trkpt>
      <trkpt lat="37.56853993982077" lon="126.97721997275949">
        <ele>46.34</ele>
      </trkpt>
      <trkpt lat="37.56831295788288" lon="126.97722248733044">
        <ele>46.46</ele>
      </trkpt>
      <trkpt lat="37.568084970116615" lon="126.97722491808236">
        <ele>46.18</ele>
      </trkpt>
      <trkpt lat="37.5678579043597" lon="126.97722743265331">
        <ele>45.31</ele>
      </trkpt>
      <trkpt lat="37.56762991659343" lon="126.97722994722426">
        <ele>44.07</ele>
      </trkpt>
      <trkpt lat="37.56737720221281" lon="126.97723329998553">
        <ele>43.18</ele>
      </trkpt>
      <trkpt lat="37.56712440401316" lon="126.97723656892776">
        <ele>42.72</ele>
      </trkpt>
      <trkpt lat="37.56686992943287" lon="126.97723992168903">
        <ele>42.16</ele>
      </trkpt>
      <trkpt lat="37.56661386229098" lon="126.97723497636616">
        <ele>41.55</ele>
      </trkpt>
      <trkpt lat="37.566357711330056" lon="126.97722994722426">
        <ele>41.07</ele>
      </trkpt>
      <trkpt lat="37.56609996780753" lon="126.97722491808236">
        <ele>40.7</ele>
      </trkpt>
      <trkpt lat="37.56584381684661" lon="126.97721997275949">
        <ele>40.39</ele>
      </trkpt>
      <trkpt lat="37.56558774970472" lon="126.97721494361758">
        <ele>39.88</ele>
      </trkpt>
      <trkpt lat="37.56532992236316" lon="126.97720999829471">
        <ele>39.67</ele>
      </trkpt>
      <trkpt lat="37.565379962325096" lon="126.97720999829471">
        <ele>39.66</ele>
      </trkpt>
      <trkpt lat="37.565153734758496" lon="126.97720664553344">
        <ele>40.0</ele>
      </trkpt>
      <trkpt lat="37.56492759101093" lon="126.97720329277217">
        <ele>40.53</ele>
      </trkpt>
      <trkpt lat="37.56469993852079" lon="126.9771999400109">
        <ele>41.0</ele>
      </trkpt>
      <trkpt lat="37.56443993188441" lon="126.97711997665465">
        <ele>41.47</ele>
      </trkpt>
      <trkpt lat="37.564429957419634" lon="126.97711997665465">
        <ele>41.96</ele>
      </trkpt>
      <trkpt lat="37.564195431768894" lon="126.97704512625933">
        <ele>42.45</ele>
      </trkpt>
      <trkpt lat="37.563959984108806" lon="126.97696994058788">
        <ele>43.33</ele>
      </trkpt>
      <trkpt lat="37.56374037824571" lon="126.97688763029873">
        <ele>44.06</ele>
      </trkpt>
      <trkpt lat="37.5635199341923" lon="126.97680498473346">
        <ele>44.76</ele>
      </trkpt>
      <trkpt lat="37.563300328329206" lon="126.97672259062529">
        <ele>45.42</ele>
      </trkpt>
      <trkpt lat="37.563079968094826" lon="126.97663994506001">
        <ele>46.19</ele>
      </trkpt>
      <trkpt lat="37.56306999363005" lon="126.97663994506001">
        <ele>46.85</ele>
      </trkpt>
      <trkpt lat="37.56284368224442" lon="126.97656341828406">
        <ele>47.63</ele>
      </trkpt>
      <trkpt lat="37.56261745467782" lon="126.9764868915081">
        <ele>48.14</ele>
      </trkpt>
      <trkpt lat="37.562389969825745" lon="126.97640994563699">
        <ele>48.67</ele>
      </trkpt>
      <trkpt lat="37.562089981511235" lon="126.97628991678357">
        <ele>49.32</ele>
      </trkpt>
      <trkpt lat="37.56209995597601" lon="126.97632998228073">
        <ele>49.6</ele>
      </trkpt>
      <trkpt lat="37.561877835541964" lon="126.97623509913683">
        <ele>49.98</ele>
      </trkpt>
      <trkpt lat="37.56165496073663" lon="126.97613996453583">
        <ele>50.11</ele>
      </trkpt>
      <trkpt lat="37.56143284030259" lon="126.97604508139193">
        <ele>50.12</ele>
      </trkpt>
      <trkpt lat="37.561209965497255" lon="126.97594994679093">
        <ele>50.16</ele>
      </trkpt>
      <trkpt lat="37.5611799582839" lon="126.97593997232616">
        <ele>50.08</ele>
      </trkpt>
      <trkpt lat="37.561025228351355" lon="126.97587006725371">
        <ele>49.92</ele>
      </trkpt>
      <trkpt lat="37.56086999550462" lon="126.9757999945432">
        <ele>49.61</ele>
      </trkpt>
      <trkpt lat="37.560889944434166" lon="126.97581994347274">
        <ele>49.32</ele>
      </trkpt>
      <trkpt lat="37.560759941115975" lon="126.97586998343468">
        <ele>48.71</ele>
      </trkpt>
      <trkpt lat="37.56063999608159" lon="126.97597995400429">
        <ele>48.3</ele>
      </trkpt>
      <trkpt lat="37.56056992337108" lon="126.97612999007106">
        <ele>47.83</ele>
      </trkpt>
      <trkpt lat="37.56057998165488" lon="126.97623996064067">
        <ele>47.43</ele>
      </trkpt>
      <trkpt lat="37.56061996333301" lon="126.97639997117221">
        <ele>47.06</ele>
      </trkpt>
      <trkpt lat="37.56061996333301" lon="126.97638999670744">
        <ele>46.72</ele>
      </trkpt>
      <trkpt lat="37.56071342155337" lon="126.97668369859457">
        <ele>46.45</ele>
      </trkpt>
      <trkpt lat="37.560806879773736" lon="126.97697748430073">
        <ele>46.23</ele>
      </trkpt>
      <trkpt lat="37.56089991889894" lon="126.97726992890239">
        <ele>45.98</ele>
      </trkpt>
      <trkpt lat="37.56089991889894" lon="126.97724997997284">
        <ele>45.77</ele>
      </trkpt>
      <trkpt lat="37.56099999882281" lon="126.9775699172169">
        <ele>45.53</ele>
      </trkpt>
      <trkpt lat="37.56105003878474" lon="126.97783042676747">
        <ele>45.38</ele>
      </trkpt>
      <trkpt lat="37.56110016256571" lon="126.97809093631804">
        <ele>45.32</ele>
      </trkpt>
      <trkpt lat="37.56114995107055" lon="126.97834993712604">
        <ele>45.3</ele>
      </trkpt>
      <trkpt lat="37.56114995107055" lon="126.9783799443394">
        <ele>45.32</ele>
      </trkpt>
      <trkpt lat="37.56121507845819" lon="126.97872309945524">
        <ele>45.54</ele>
      </trkpt>
      <trkpt lat="37.56127995438874" lon="126.9790649972856">
        <ele>45.87</ele>
      </trkpt>
      <trkpt lat="37.56134508177638" lon="126.97940806858242">
        <ele>45.97</ele>
      </trkpt>
      <trkpt lat="37.56140995770693" lon="126.97974996641278">
        <ele>46.01</ele>
      </trkpt>
      <trkpt lat="37.56140995770693" lon="126.97973999194801">
        <ele>46.18</ele>
      </trkpt>
      <trkpt lat="37.56143996492028" lon="126.9799199514091">
        <ele>46.35</ele>
      </trkpt>
      <trkpt lat="37.5615200959146" lon="126.98018540628254">
        <ele>46.58</ele>
      </trkpt>
      <trkpt lat="37.56159997545183" lon="126.98044993914664">
        <ele>46.74</ele>
      </trkpt>
      <trkpt lat="37.56173995323479" lon="126.9807799346745">
        <ele>46.84</ele>
      </trkpt>
      <trkpt lat="37.561749927699566" lon="126.98080994188786">
        <ele>47.07</ele>
      </trkpt>
      <trkpt lat="37.56185503676534" lon="126.98098503984511">
        <ele>47.28</ele>
      </trkpt>
      <trkpt lat="37.561959978193045" lon="126.9811599701643">
        <ele>47.63</ele>
      </trkpt>
      <trkpt lat="37.56216650828719" lon="126.9809733889997">
        <ele>47.69</ele>
      </trkpt>
      <trkpt lat="37.56237303838134" lon="126.98078689165413">
        <ele>48.02</ele>
      </trkpt>
      <trkpt lat="37.56257998757064" lon="126.98059997521341">
        <ele>48.53</ele>
      </trkpt>
      <trkpt lat="37.56276145577431" lon="126.98044675402343">
        <ele>49.12</ele>
      </trkpt>
      <trkpt lat="37.562943007797" lon="126.98029353283346">
        <ele>49.45</ele>
      </trkpt>
      <trkpt lat="37.56312497891486" lon="126.98013997636735">
        <ele>49.72</ele>
      </trkpt>
      <trkpt lat="37.56330644711852" lon="126.97998675517738">
        <ele>49.19</ele>
      </trkpt>
      <trkpt lat="37.563487999141216" lon="126.9798335339874">
        <ele>48.71</ele>
      </trkpt>
      <trkpt lat="37.56366997025907" lon="126.9796799775213">
        <ele>48.53</ele>
      </trkpt>
      <trkpt lat="37.56392997689545" lon="126.97945995256305">
        <ele>48.59</ele>
      </trkpt>
      <trkpt lat="37.56416483782232" lon="126.9792100880295">
        <ele>48.64</ele>
      </trkpt>
      <trkpt lat="37.56439995020628" lon="126.97895997203887">
        <ele>48.85</ele>
      </trkpt>
      <trkpt lat="37.564559960737824" lon="126.9788099359721">
        <ele>48.8</ele>
      </trkpt>
      <trkpt lat="37.56472977809608" lon="126.97866509668529">
        <ele>48.57</ele>
      </trkpt>
      <trkpt lat="37.56489993073046" lon="126.97851992212236">
        <ele>48.16</ele>
      </trkpt>
      <trkpt lat="37.56495994515717" lon="126.97850994765759">
        <ele>47.95</ele>
      </trkpt>
      <trkpt lat="37.565119955688715" lon="126.97852998040617">
        <ele>47.71</ele>
      </trkpt>
      <trkpt lat="37.56519991904497" lon="126.9785699620843">
        <ele>47.71</ele>
      </trkpt>
      <trkpt lat="37.56519991904497" lon="126.97855998761952">
        <ele>47.84</ele>
      </trkpt>
      <trkpt lat="37.56547451019287" lon="126.97869971394539">
        <ele>47.97</ele>
      </trkpt>
      <trkpt lat="37.56574993953109" lon="126.97883994318545">
        <ele>48.48</ele>
      </trkpt>
      <trkpt lat="37.56574993953109" lon="126.97882996872067">
        <ele>48.8</ele>
      </trkpt>
      <trkpt lat="37.56588991731405" lon="126.97889995761216">
        <ele>49.32</ele>
      </trkpt>
      <trkpt lat="37.56588832475245" lon="126.97919894009829">
        <ele>50.1</ele>
      </trkpt>
      <trkpt lat="37.565886648371816" lon="126.97949783876538">
        <ele>50.64</ele>
      </trkpt>
      <trkpt lat="37.56588497199118" lon="126.97979497723281">
        <ele>51.06</ele>
      </trkpt>
      <trkpt lat="37.56588329561055" lon="126.98009387589991">
        <ele>51.58</ele>
      </trkpt>
      <trkpt lat="37.56588161922991" lon="126.98039285838604">
        <ele>52.03</ele>
      </trkpt>
      <trkpt lat="37.56587994284928" lon="126.98068999685347">
        <ele>52.48</ele>
      </trkpt>
      <trkpt lat="37.56587994284928" lon="126.9807199202478">
        <ele>52.88</ele>
      </trkpt>
      <trkpt lat="37.56588329561055" lon="126.98105729185045">
        <ele>53.34</ele>
      </trkpt>
      <trkpt lat="37.565886648371816" lon="126.9813946634531">
        <ele>53.83</ele>
      </trkpt>
      <trkpt lat="37.565890001133084" lon="126.98172993957996">
        <ele>54.04</ele>
      </trkpt>
      <trkpt lat="37.56589327007532" lon="126.98206731118262">
        <ele>53.91</ele>
      </trkpt>
      <trkpt lat="37.56589662283659" lon="126.98240468278527">
        <ele>53.32</ele>
      </trkpt>
      <trkpt lat="37.56589997559786" lon="126.98273995891213">
        <ele>52.76</ele>
      </trkpt>
      <trkpt lat="37.56592998281121" lon="126.98306559585035">
        <ele>52.27</ele>
      </trkpt>
      <trkpt lat="37.56595999002457" lon="126.98338997550309">
        <ele>51.65</ele>
      </trkpt>
      <trkpt lat="37.56596996448934" lon="126.98365551419556">
        <ele>50.87</ele>
      </trkpt>
      <trkpt lat="37.565979938954115" lon="126.98391996324062">
        <ele>50.23</ele>
      </trkpt>
      <trkpt lat="37.565979938954115" lon="126.98386992327869">
        <ele>49.55</ele>
      </trkpt>
      <trkpt lat="37.56598748266697" lon="126.98421819135547">
        <ele>48.76</ele>
      </trkpt>
      <trkpt lat="37.56599494256079" lon="126.98456495068967">
        <ele>47.6</ele>
      </trkpt>
      <trkpt lat="37.566002486273646" lon="126.98491321876645">
        <ele>46.74</ele>
      </trkpt>
      <trkpt lat="37.56600994616747" lon="126.98525997810066">
        <ele>46.17</ele>
      </trkpt>
      <trkpt lat="37.56600994616747" lon="126.98520993813872">
        <ele>45.28</ele>
      </trkpt>
      <trkpt lat="37.56601832807064" lon="126.98553565889597">
        <ele>44.54</ele>
      </trkpt>
      <trkpt lat="37.56602662615478" lon="126.98586129583418">
        <ele>43.69</ele>
      </trkpt>
      <trkpt lat="37.56603492423892" lon="126.98618492111564">
        <ele>42.67</ele>
      </trkpt>
      <trkpt lat="37.56604330614209" lon="126.98651064187288">
        <ele>41.72</ele>
      </trkpt>
      <trkpt lat="37.56605168804526" lon="126.9868362788111">
        <ele>40.74</ele>
      </trkpt>
      <trkpt lat="37.5660599861294" lon="126.98715998791158">
        <ele>39.79</ele>
      </trkpt>
      <trkpt lat="37.5660599861294" lon="126.98718999512494">
        <ele>38.95</ele>
      </trkpt>
      <trkpt lat="37.56606996059418" lon="126.98753566481173">
        <ele>38.14</ele>
      </trkpt>
      <trkpt lat="37.56607993505895" lon="126.98787999339402">
        <ele>37.17</ele>
      </trkpt>
      <trkpt lat="37.566096698865294" lon="126.9882351346314">
        <ele>36.4</ele>
      </trkpt>
      <trkpt lat="37.566113378852606" lon="126.98859027586877">
        <ele>35.73</ele>
      </trkpt>
      <trkpt lat="37.566129975020885" lon="126.98894332163036">
        <ele>34.86</ele>
      </trkpt>
      <trkpt lat="37.5661466550082" lon="126.98929846286774">
        <ele>33.97</ele>
      </trkpt>
      <trkpt lat="37.56616333499551" lon="126.98965360410511">
        <ele>33.42</ele>
      </trkpt>
      <trkpt lat="37.56617993116379" lon="126.9900066498667">
        <ele>32.92</ele>
      </trkpt>
      <trkpt lat="37.56619669497013" lon="126.99036179110408">
        <ele>32.39</ele>
      </trkpt>
      <trkpt lat="37.56621337495744" lon="126.99071701616049">
        <ele>31.42</ele>
      </trkpt>
      <trkpt lat="37.56622997112572" lon="126.99106997810304">
        <ele>30.67</ele>
      </trkpt>
      <trkpt lat="37.56622997112572" lon="126.99110995978117">
        <ele>30.12</ele>
      </trkpt>
      <trkpt lat="37.56624748930335" lon="126.99148572050035">
        <ele>29.57</ele>
      </trkpt>
      <trkpt lat="37.56626492366195" lon="126.99185997247696">
        <ele>29.01</ele>
      </trkpt>
      <trkpt lat="37.56628252565861" lon="126.99223573319614">
        <ele>28.52</ele>
      </trkpt>
      <trkpt lat="37.566299960017204" lon="126.99260998517275">
        <ele>28.08</ele>
      </trkpt>
      <trkpt lat="37.566299960017204" lon="126.9926399923861">
        <ele>27.86</ele>
      </trkpt>
      <trkpt lat="37.56641998887062" lon="126.99261995963752">
        <ele>27.76</ele>
      </trkpt>
      <trkpt lat="37.56641998887062" lon="126.9925799779594">
        <ele>27.75</ele>
      </trkpt>
      <trkpt lat="37.566409930586815" lon="126.99239993467927">
        <ele>27.83</ele>
      </trkpt>
      <trkpt lat="37.566409930586815" lon="126.99234997853637">
        <ele>28.0</ele>
      </trkpt>
      <trkpt lat="37.56639660336077" lon="126.99208276346326">
        <ele>28.34</ele>
      </trkpt>
      <trkpt lat="37.56638327613473" lon="126.99181554839015">
        <ele>28.84</ele>
      </trkpt>
      <trkpt lat="37.56636994890869" lon="126.99154992587864">
        <ele>29.4</ele>
      </trkpt>
      <trkpt lat="37.566356621682644" lon="126.99128271080554">
        <ele>29.91</ele>
      </trkpt>
      <trkpt lat="37.56634321063757" lon="126.99101549573243">
        <ele>30.46</ele>
      </trkpt>
      <trkpt lat="37.56632996723056" lon="126.99074995703995">
        <ele>31.23</ele>
      </trkpt>
      <trkpt lat="37.566316640004516" lon="126.99048274196684">
        <ele>32.07</ele>
      </trkpt>
      <trkpt lat="37.56630322895944" lon="126.99021552689373">
        <ele>32.62</ele>
      </trkpt>
      <trkpt lat="37.56628998555243" lon="126.98994998820126">
        <ele>33.01</ele>
      </trkpt>
      <trkpt lat="37.566279927268624" lon="126.98989994823933">
        <ele>33.55</ele>
      </trkpt>
      <trkpt lat="37.56626995280385" lon="126.98958093300462">
        <ele>33.93</ele>
      </trkpt>
      <trkpt lat="37.566259894520044" lon="126.98926200158894">
        <ele>34.46</ele>
      </trkpt>
      <trkpt lat="37.56624992005527" lon="126.988944998011">
        <ele>35.16</ele>
      </trkpt>
      <trkpt lat="37.566239945590496" lon="126.98862598277628">
        <ele>35.91</ele>
      </trkpt>
      <trkpt lat="37.56622988730669" lon="126.98830696754158">
        <ele>36.49</ele>
      </trkpt>
      <trkpt lat="37.56621999666095" lon="126.98798996396363">
        <ele>37.14</ele>
      </trkpt>
      <trkpt lat="37.56621999666095" lon="126.98801997117698">
        <ele>37.84</ele>
      </trkpt>
      <trkpt lat="37.56620993837714" lon="126.98769173584878">
        <ele>38.72</ele>
      </trkpt>
      <trkpt lat="37.56619996391237" lon="126.98736358433962">
        <ele>39.51</ele>
      </trkpt>
      <trkpt lat="37.566189989447594" lon="126.98703744448721">
        <ele>40.16</ele>
      </trkpt>
      <trkpt lat="37.56617993116379" lon="126.98670929297805">
        <ele>41.03</ele>
      </trkpt>
      <trkpt lat="37.566169956699014" lon="126.98638105764985">
        <ele>41.83</ele>
      </trkpt>
      <trkpt lat="37.56615998223424" lon="126.98605491779745">
        <ele>42.75</ele>
      </trkpt>
      <trkpt lat="37.566149923950434" lon="126.98572676628828">
        <ele>43.74</ele>
      </trkpt>
      <trkpt lat="37.56613994948566" lon="126.98539861477911">
        <ele>44.54</ele>
      </trkpt>
      <trkpt lat="37.566129975020885" lon="126.98507247492671">
        <ele>45.17</ele>
      </trkpt>
      <trkpt lat="37.56611991673708" lon="126.98474423959851">
        <ele>46.09</ele>
      </trkpt>
      <trkpt lat="37.566109942272305" lon="126.98441608808935">
        <ele>47.3</ele>
      </trkpt>
      <trkpt lat="37.56609996780753" lon="126.98408994823694">
        <ele>48.28</ele>
      </trkpt>
      <trkpt lat="37.56609996780753" lon="126.9841199554503">
        <ele>49.07</ele>
      </trkpt>
      <trkpt lat="37.566089909523726" lon="126.98382432572544">
        <ele>49.73</ele>
      </trkpt>
      <trkpt lat="37.56607993505895" lon="126.98352995328605">
        <ele>50.48</ele>
      </trkpt>
      <trkpt lat="37.566230054944754" lon="126.983299870044">
        <ele>50.88</ele>
      </trkpt>
      <trkpt lat="37.56637992337346" lon="126.98306995444">
        <ele>51.31</ele>
      </trkpt>
      <trkpt lat="37.56651998497546" lon="126.9828799366951">
        <ele>52.17</ele>
      </trkpt>
      <trkpt lat="37.56662995554507" lon="126.98273995891213">
        <ele>52.88</ele>
      </trkpt>
      <trkpt lat="37.566789630800486" lon="126.98275496251881">
        <ele>53.57</ele>
      </trkpt>
      <trkpt lat="37.56694997660816" lon="126.98276996612549">
        <ele>54.05</ele>
      </trkpt>
      <trkpt lat="37.56724434904754" lon="126.98277742601931">
        <ele>54.04</ele>
      </trkpt>
      <trkpt lat="37.5675399787724" lon="126.98278496973217">
        <ele>53.0</ele>
      </trkpt>
      <trkpt lat="37.567834351211786" lon="126.98279242962599">
        <ele>52.49</ele>
      </trkpt>
      <trkpt lat="37.56812998093665" lon="126.98279997333884">
        <ele>52.41</ele>
      </trkpt>
      <trkpt lat="37.56815998815" lon="126.98279997333884">
        <ele>51.93</ele>
      </trkpt>
      <trkpt lat="37.56837951019406" lon="126.98279997333884">
        <ele>51.32</ele>
      </trkpt>
      <trkpt lat="37.568599954247475" lon="126.98279997333884">
        <ele>50.27</ele>
      </trkpt>
      <trkpt lat="37.56866994313896" lon="126.98274993337691">
        <ele>49.45</ele>
      </trkpt>
      <trkpt lat="37.568729957565665" lon="126.98275999166071">
        <ele>48.58</ele>
      </trkpt>
      <trkpt lat="37.56868997588754" lon="126.98296995833516">
        <ele>47.66</ele>
      </trkpt>
      <trkpt lat="37.56863733753562" lon="126.98327304795384">
        <ele>46.7</ele>
      </trkpt>
      <trkpt lat="37.5685849506408" lon="126.98357496410608">
        <ele>45.8</ele>
      </trkpt>
      <trkpt lat="37.56853239610791" lon="126.98387805372477">
        <ele>44.69</ele>
      </trkpt>
      <trkpt lat="37.56847992539406" lon="126.984179969877">
        <ele>43.51</ele>
      </trkpt>
      <trkpt lat="37.568414798006415" lon="126.9845256395638">
        <ele>42.16</ele>
      </trkpt>
      <trkpt lat="37.56834992207587" lon="126.98486996814609">
        <ele>40.94</ele>
      </trkpt>
      <trkpt lat="37.568293176591396" lon="126.98516383767128">
        <ele>40.12</ele>
      </trkpt>
      <trkpt lat="37.568236431106925" lon="126.98545770719647">
        <ele>39.4</ele>
      </trkpt>
      <trkpt lat="37.56817993707955" lon="126.98574998416007">
        <ele>38.51</ele>
      </trkpt>
      <trkpt lat="37.56812319159508" lon="126.98604385368526">
        <ele>37.66</ele>
      </trkpt>
      <trkpt lat="37.568066446110606" lon="126.98633772321045">
        <ele>36.86</ele>
      </trkpt>
      <trkpt lat="37.56800995208323" lon="126.98662991635501">
        <ele>36.29</ele>
      </trkpt>
      <trkpt lat="37.567999977618456" lon="126.98691993020475">
        <ele>35.87</ele>
      </trkpt>
      <trkpt lat="37.567999977618456" lon="126.9868999812752">
        <ele>35.2</ele>
      </trkpt>
      <trkpt lat="37.56799327209592" lon="126.98722058907151">
        <ele>34.89</ele>
      </trkpt>
      <trkpt lat="37.56798656657338" lon="126.98754128068686">
        <ele>34.15</ele>
      </trkpt>
      <trkpt lat="37.567979944869876" lon="126.98785996064544">
        <ele>33.2</ele>
      </trkpt>
      <trkpt lat="37.56797323934734" lon="126.98818065226078">
        <ele>32.5</ele>
      </trkpt>
      <trkpt lat="37.56796661764383" lon="126.98850126005709">
        <ele>31.88</ele>
      </trkpt>
      <trkpt lat="37.56795999594033" lon="126.98881994001567">
        <ele>31.23</ele>
      </trkpt>
      <trkpt lat="37.56795999594033" lon="126.98879999108613">
        <ele>30.82</ele>
      </trkpt>
      <trkpt lat="37.56795999594033" lon="126.98901993222535">
        <ele>30.28</ele>
      </trkpt>
      <trkpt lat="37.56798002868891" lon="126.98933727107942">
        <ele>29.86</ele>
      </trkpt>
      <trkpt lat="37.56800006143749" lon="126.9896546099335">
        <ele>29.67</ele>
      </trkpt>
      <trkpt lat="37.568019926548004" lon="126.98996993713081">
        <ele>29.61</ele>
      </trkpt>
      <trkpt lat="37.568019926548004" lon="126.98997999541461">
        <ele>29.45</ele>
      </trkpt>
      <trkpt lat="37.56804331205785" lon="126.99036405421793">
        <ele>29.5</ele>
      </trkpt>
      <trkpt lat="37.56806661374867" lon="126.99074660427868">
        <ele>29.29</ele>
      </trkpt>
      <trkpt lat="37.56808999925852" lon="126.99113074690104">
        <ele>29.25</ele>
      </trkpt>
      <trkpt lat="37.568113300949335" lon="126.99151329696178">
        <ele>29.11</ele>
      </trkpt>
      <trkpt lat="37.568136686459184" lon="126.99189743958414">
        <ele>29.03</ele>
      </trkpt>
      <trkpt lat="37.56815998815" lon="126.99227998964489">
        <ele>29.03</ele>
      </trkpt>
      <trkpt lat="37.56815998815" lon="126.99226993136108">
        <ele>29.09</ele>
      </trkpt>
      <trkpt lat="37.568185552954674" lon="126.99256614781916">
        <ele>29.19</ele>
      </trkpt>
      <trkpt lat="37.56821120157838" lon="126.99286228045821">
        <ele>29.39</ele>
      </trkpt>
      <trkpt lat="37.56823659874499" lon="126.9931566528976">
        <ele>29.61</ele>
      </trkpt>
      <trkpt lat="37.56826224736869" lon="126.99345278553665">
        <ele>29.74</ele>
      </trkpt>
      <trkpt lat="37.56828781217337" lon="126.9937489181757">
        <ele>29.81</ele>
      </trkpt>
      <trkpt lat="37.56831329315901" lon="126.99404329061508">
        <ele>29.82</ele>
      </trkpt>
      <trkpt lat="37.56833894178271" lon="126.99433942325413">
        <ele>29.98</ele>
      </trkpt>
      <trkpt lat="37.568364506587386" lon="126.99463563971221">
        <ele>30.08</ele>
      </trkpt>
      <trkpt lat="37.56838998757303" lon="126.99492992833257">
        <ele>30.03</ele>
      </trkpt>
      <trkpt lat="37.56838998757303" lon="126.99489992111921">
        <ele>29.96</ele>
      </trkpt>
      <trkpt lat="37.56841999478638" lon="126.99525070376694">
        <ele>29.79</ele>
      </trkpt>
      <trkpt lat="37.568450001999736" lon="126.9955999776721">
        <ele>29.46</ele>
      </trkpt>
      <trkpt lat="37.56848000921309" lon="126.9959506765008">
        <ele>29.17</ele>
      </trkpt>
      <trkpt lat="37.56850993260741" lon="126.99629995040596">
        <ele>29.02</ele>
      </trkpt>
      <trkpt lat="37.56855335086584" lon="126.99666732922196">
        <ele>28.9</ele>
      </trkpt>
      <trkpt lat="37.56859676912427" lon="126.997034791857">
        <ele>28.69</ele>
      </trkpt>
      <trkpt lat="37.5686399359256" lon="126.99739999137819">
        <ele>28.46</ele>
      </trkpt>
      <trkpt lat="37.5686399359256" lon="126.99740996584296">
        <ele>28.25</ele>
      </trkpt>
      <trkpt lat="37.56867002695799" lon="126.99767550453544">
        <ele>27.99</ele>
      </trkpt>
      <trkpt lat="37.56869995035231" lon="126.9979399535805">
        <ele>27.75</ele>
      </trkpt>
      <trkpt lat="37.56877672858536" lon="126.99828386306763">
        <ele>27.65</ele>
      </trkpt>
      <trkpt lat="37.568853590637445" lon="126.99862785637379">
        <ele>27.57</ele>
      </trkpt>
      <trkpt lat="37.56892994977534" lon="126.99896992184222">
        <ele>27.29</ele>
      </trkpt>
      <trkpt lat="37.568980073556304" lon="126.99926722794771">
        <ele>26.97</ele>
      </trkpt>
      <trkpt lat="37.56903011351824" lon="126.99956445023417">
        <ele>26.86</ele>
      </trkpt>
      <trkpt lat="37.56907998584211" lon="126.99985999614">
        <ele>26.86</ele>
      </trkpt>
      <trkpt lat="37.56907998584211" lon="126.9998499378562">
        <ele>26.74</ele>
      </trkpt>
      <trkpt lat="37.56913337856531" lon="127.00018228031695">
        <ele>26.75</ele>
      </trkpt>
      <trkpt lat="37.569186855107546" lon="127.00051453895867">
        <ele>26.78</ele>
      </trkpt>
      <trkpt lat="37.56923999637365" lon="127.00084495358169">
        <ele>26.69</ele>
      </trkpt>
      <trkpt lat="37.569293389096856" lon="127.00117729604244">
        <ele>26.51</ele>
      </trkpt>
      <trkpt lat="37.56934686563909" lon="127.00150955468416">
        <ele>26.42</ele>
      </trkpt>
      <trkpt lat="37.569399923086166" lon="127.00183996930718">
        <ele>26.36</ele>
      </trkpt>
      <trkpt lat="37.569399923086166" lon="127.00185991823673">
        <ele>26.43</ele>
      </trkpt>
      <trkpt lat="37.569435043260455" lon="127.00220567174256">
        <ele>26.5</ele>
      </trkpt>
      <trkpt lat="37.56946999579668" lon="127.00254991650581">
        <ele>26.62</ele>
      </trkpt>
      <trkpt lat="37.56946999579668" lon="127.00282383710146">
        <ele>26.88</ele>
      </trkpt>
      <trkpt lat="37.56946999579668" lon="127.0030977576971">
        <ele>27.21</ele>
      </trkpt>
      <trkpt lat="37.56946999579668" lon="127.00336991809309">
        <ele>27.52</ele>
      </trkpt>
      <trkpt lat="37.56946999579668" lon="127.00364383868873">
        <ele>27.81</ele>
      </trkpt>
      <trkpt lat="37.56946999579668" lon="127.00391775928438">
        <ele>28.18</ele>
      </trkpt>
      <trkpt lat="37.56946999579668" lon="127.00418991968036">
        <ele>28.65</ele>
      </trkpt>
      <trkpt lat="37.56946999579668" lon="127.00419997796416">
        <ele>29.05</ele>
      </trkpt>
      <trkpt lat="37.56947326473892" lon="127.0044693723321">
        <ele>29.61</ele>
      </trkpt>
      <trkpt lat="37.569476617500186" lon="127.00473885051906">
        <ele>30.15</ele>
      </trkpt>
      <trkpt lat="37.569479970261455" lon="127.00500665232539">
        <ele>30.56</ele>
      </trkpt>
      <trkpt lat="37.56948332302272" lon="127.00527604669333">
        <ele>30.87</ele>
      </trkpt>
      <trkpt lat="37.56948667578399" lon="127.00554552488029">
        <ele>31.18</ele>
      </trkpt>
      <trkpt lat="37.56948994472623" lon="127.00581332668662">
        <ele>31.54</ele>
      </trkpt>
      <trkpt lat="37.5694932974875" lon="127.00608272105455">
        <ele>31.93</ele>
      </trkpt>
      <trkpt lat="37.569496650248766" lon="127.00635219924152">
        <ele>32.28</ele>
      </trkpt>
      <trkpt lat="37.569499919191" lon="127.00661991722882">
        <ele>32.55</ele>
      </trkpt>
      <trkpt lat="37.56951500661671" lon="127.00698067434132">
        <ele>32.6</ele>
      </trkpt>
      <trkpt lat="37.56952992640436" lon="127.00733992271125">
        <ele>32.45</ele>
      </trkpt>
      <trkpt lat="37.56952992640436" lon="127.00732994824648">
        <ele>32.49</ele>
      </trkpt>
      <trkpt lat="37.569545013830066" lon="127.00766899622977">
        <ele>32.46</ele>
      </trkpt>
      <trkpt lat="37.56956001743674" lon="127.00800804421306">
        <ele>32.52</ele>
      </trkpt>
      <trkpt lat="37.56957493722439" lon="127.00834499672055">
        <ele>32.48</ele>
      </trkpt>
      <trkpt lat="37.5695900246501" lon="127.00868396088481">
        <ele>32.22</ele>
      </trkpt>
      <trkpt lat="37.569605028256774" lon="127.0090230088681">
        <ele>32.07</ele>
      </trkpt>
      <trkpt lat="37.56961994804442" lon="127.0093599613756">
        <ele>31.74</ele>
      </trkpt>
      <trkpt lat="37.569614918902516" lon="127.00973069295287">
        <ele>31.47</ele>
      </trkpt>
      <trkpt lat="37.569609973579645" lon="127.01009999960661">
        <ele>31.3</ele>
      </trkpt>
      <trkpt lat="37.56960494443774" lon="127.01047073118389">
        <ele>31.08</ele>
      </trkpt>
      <trkpt lat="37.56959999911487" lon="127.01083995401859">
        <ele>30.69</ele>
      </trkpt>
      <trkpt lat="37.56959999911487" lon="127.01081992127001">
        <ele>30.44</ele>
      </trkpt>
      <trkpt lat="37.56959496997297" lon="127.01115561649203">
        <ele>30.05</ele>
      </trkpt>
      <trkpt lat="37.569589940831065" lon="127.01148997060955">
        <ele>29.85</ele>
      </trkpt>
      <trkpt lat="37.56958491168916" lon="127.01182566583157">
        <ele>29.53</ele>
      </trkpt>
      <trkpt lat="37.56957996636629" lon="127.01215993613005">
        <ele>29.12</ele>
      </trkpt>
      <trkpt lat="37.56958248093724" lon="127.01248565688729">
        <ele>28.95</ele>
      </trkpt>
      <trkpt lat="37.569584995508194" lon="127.012809952721">
        <ele>28.93</ele>
      </trkpt>
      <trkpt lat="37.569587426260114" lon="127.01313567347825">
        <ele>28.88</ele>
      </trkpt>
      <trkpt lat="37.569589940831065" lon="127.01345996931195">
        <ele>28.75</ele>
      </trkpt>
      <trkpt lat="37.569589940831065" lon="127.01346994377673">
        <ele>28.58</ele>
      </trkpt>
      <trkpt lat="37.569593293592334" lon="127.0137822534889">
        <ele>28.38</ele>
      </trkpt>
      <trkpt lat="37.5695966463536" lon="127.01409456320107">
        <ele>28.17</ele>
      </trkpt>
      <trkpt lat="37.56959999911487" lon="127.01440494507551">
        <ele>27.87</ele>
      </trkpt>
      <trkpt lat="37.56960326805711" lon="127.01471725478768">
        <ele>27.79</ele>
      </trkpt>
      <trkpt lat="37.56960662081838" lon="127.01502956449986">
        <ele>27.77</ele>
      </trkpt>
      <trkpt lat="37.569609973579645" lon="127.0153399463743">
        <ele>27.6</ele>
      </trkpt>
      <trkpt lat="37.569609973579645" lon="127.01532997190952">
        <ele>27.39</ele>
      </trkpt>
      <trkpt lat="37.56961500272155" lon="127.0157107617706">
        <ele>26.98</ele>
      </trkpt>
      <trkpt lat="37.56961994804442" lon="127.01608995907009">
        <ele>26.69</ele>
      </trkpt>
      <trkpt lat="37.569706784561276" lon="127.01641383580863">
        <ele>26.45</ele>
      </trkpt>
      <trkpt lat="37.569793621078134" lon="127.01673771254718">
        <ele>26.18</ele>
      </trkpt>
      <trkpt lat="37.5698799546808" lon="127.01705999672413">
        <ele>25.87</ele>
      </trkpt>
      <trkpt lat="37.569990092888474" lon="127.01733031310141">
        <ele>25.63</ele>
      </trkpt>
      <trkpt lat="37.57009997963905" lon="127.01759995892644">
        <ele>25.32</ele>
      </trkpt>
      <trkpt lat="37.57010995410383" lon="127.01760993339121">
        <ele>25.06</ele>
      </trkpt>
      <trkpt lat="37.570230066776276" lon="127.01785015873611">
        <ele>24.74</ele>
      </trkpt>
      <trkpt lat="37.570350179448724" lon="127.018090384081">
        <ele>24.43</ele>
      </trkpt>
      <trkpt lat="37.570469956845045" lon="127.01832993887365">
        <ele>24.16</ele>
      </trkpt>
      <trkpt lat="37.57059006951749" lon="127.01857016421854">
        <ele>23.91</ele>
      </trkpt>
      <trkpt lat="37.57071018218994" lon="127.01881038956344">
        <ele>23.75</ele>
      </trkpt>
      <trkpt lat="37.57082995958626" lon="127.01904994435608">
        <ele>23.63</ele>
      </trkpt>
      <trkpt lat="37.57099508307874" lon="127.01936518773437">
        <ele>23.53</ele>
      </trkpt>
      <trkpt lat="37.571159955114126" lon="127.01967992819846">
        <ele>23.45</ele>
      </trkpt>
      <trkpt lat="37.571260035037994" lon="127.01991017907858">
        <ele>23.35</ele>
      </trkpt>
      <trkpt lat="37.5713599473238" lon="127.02013992704451">
        <ele>23.14</ele>
      </trkpt>
      <trkpt lat="37.5713599473238" lon="127.02014998532832">
        <ele>22.99</ele>
      </trkpt>
      <trkpt lat="37.57148014381528" lon="127.02045030891895">
        <ele>22.82</ele>
      </trkpt>
      <trkpt lat="37.5715999212116" lon="127.02074996195734">
        <ele>22.82</ele>
      </trkpt>
      <trkpt lat="37.57164007052779" lon="127.02096034772694">
        <ele>22.72</ele>
      </trkpt>
      <trkpt lat="37.57167996838689" lon="127.02116997912526">
        <ele>22.47</ele>
      </trkpt>
      <trkpt lat="37.57170997560024" lon="127.02151992358267">
        <ele>22.14</ele>
      </trkpt>
      <trkpt lat="37.57170997560024" lon="127.02189995907247">
        <ele>21.88</ele>
      </trkpt>
      <trkpt lat="37.57166991010308" lon="127.0222473051399">
        <ele>21.65</ele>
      </trkpt>
      <trkpt lat="37.57162976078689" lon="127.02259465120733">
        <ele>21.46</ele>
      </trkpt>
      <trkpt lat="37.571589946746826" lon="127.022939985618">
        <ele>21.32</ele>
      </trkpt>
      <trkpt lat="37.57161995396018" lon="127.0226199645549">
        <ele>21.18</ele>
      </trkpt>
      <trkpt lat="37.571589946746826" lon="127.022939985618">
        <ele>21.06</ele>
      </trkpt>
      <trkpt lat="37.571508726105094" lon="127.02321482822299">
        <ele>20.96</ele>
      </trkpt>
      <trkpt lat="37.57142750546336" lon="127.02348975464702">
        <ele>20.98</ele>
      </trkpt>
      <trkpt lat="37.571346620097756" lon="127.0237632561475">
        <ele>20.97</ele>
      </trkpt>
      <trkpt lat="37.571265399456024" lon="127.02403818257153">
        <ele>20.93</ele>
      </trkpt>
      <trkpt lat="37.57118417881429" lon="127.02431302517653">
        <ele>20.8</ele>
      </trkpt>
      <trkpt lat="37.57110329344869" lon="127.02458661049604">
        <ele>20.65</ele>
      </trkpt>
      <trkpt lat="37.571022072806954" lon="127.02486153692007">
        <ele>20.5</ele>
      </trkpt>
      <trkpt lat="37.57094085216522" lon="127.02513637952507">
        <ele>20.33</ele>
      </trkpt>
      <trkpt lat="37.57085996679962" lon="127.02540996484458">
        <ele>20.38</ele>
      </trkpt>
      <trkpt lat="37.57085996679962" lon="127.02539999037981">
        <ele>20.39</ele>
      </trkpt>
      <trkpt lat="37.5707798358053" lon="127.02568044885993">
        <ele>20.51</ele>
      </trkpt>
      <trkpt lat="37.57069995626807" lon="127.0259599853307">
        <ele>20.67</ele>
      </trkpt>
      <trkpt lat="37.57061982527375" lon="127.02624044381082">
        <ele>20.85</ele>
      </trkpt>
      <trkpt lat="37.57053994573653" lon="127.02651998028159">
        <ele>21.05</ele>
      </trkpt>
      <trkpt lat="37.57043316029012" lon="127.02686045318842">
        <ele>21.04</ele>
      </trkpt>
      <trkpt lat="37.570326291024685" lon="127.02720100991428">
        <ele>20.98</ele>
      </trkpt>
      <trkpt lat="37.57021992467344" lon="127.02753997407854">
        <ele>20.91</ele>
      </trkpt>
      <trkpt lat="37.57015488110483" lon="127.02776033431292">
        <ele>20.94</ele>
      </trkpt>
      <trkpt lat="37.57008992135525" lon="127.02797994017601">
        <ele>21.06</ele>
      </trkpt>
      <trkpt lat="37.57000149227679" lon="127.02830214053392">
        <ele>21.08</ele>
      </trkpt>
      <trkpt lat="37.569912979379296" lon="127.02862434089184">
        <ele>21.19</ele>
      </trkpt>
      <trkpt lat="37.569824969395995" lon="127.02894494868815">
        <ele>21.29</ele>
      </trkpt>
      <trkpt lat="37.569736456498504" lon="127.02926714904606">
        <ele>21.32</ele>
      </trkpt>
      <trkpt lat="37.569648027420044" lon="127.02958934940398">
        <ele>21.42</ele>
      </trkpt>
      <trkpt lat="37.56955993361771" lon="127.02990995720029">
        <ele>21.63</ele>
      </trkpt>
      <trkpt lat="37.56950997747481" lon="127.0302699599415">
        <ele>21.82</ele>
      </trkpt>
      <trkpt lat="37.5694948900491" lon="127.0305104367435">
        <ele>21.95</ele>
      </trkpt>
      <trkpt lat="37.569479970261455" lon="127.03074999153614">
        <ele>22.08</ele>
      </trkpt>
      <trkpt lat="37.56948994472623" lon="127.03095534816384">
        <ele>22.33</ele>
      </trkpt>
      <trkpt lat="37.569499919191" lon="127.03115995042026">
        <ele>22.58</ele>
      </trkpt>
      <trkpt lat="37.56953503936529" lon="127.03139539808035">
        <ele>22.78</ele>
      </trkpt>
      <trkpt lat="37.56956999190152" lon="127.03162992373109">
        <ele>22.93</ele>
      </trkpt>
      <trkpt lat="37.569653391838074" lon="127.03188029117882">
        <ele>23.09</ele>
      </trkpt>
      <trkpt lat="37.56973687559366" lon="127.03213065862656">
        <ele>23.14</ele>
      </trkpt>
      <trkpt lat="37.56981994025409" lon="127.03237993642688">
        <ele>23.22</ele>
      </trkpt>
      <trkpt lat="37.56996511481702" lon="127.03268026001751">
        <ele>23.3</ele>
      </trkpt>
      <trkpt lat="37.57010995410383" lon="127.03297999687493">
        <ele>23.39</ele>
      </trkpt>
      <trkpt lat="37.570189917460084" lon="127.03309994190931">
        <ele>23.41</ele>
      </trkpt>
      <trkpt lat="37.57017994299531" lon="127.03307999297976">
        <ele>23.43</ele>
      </trkpt>
      <trkpt lat="37.57033333182335" lon="127.03329498879611">
        <ele>23.38</ele>
      </trkpt>
      <trkpt lat="37.57048672065139" lon="127.0335100684315">
        <ele>23.29</ele>
      </trkpt>
      <trkpt lat="37.570639941841364" lon="127.03372498042881">
        <ele>23.21</ele>
      </trkpt>
      <trkpt lat="37.5707933306694" lon="127.03393997624516">
        <ele>23.17</ele>
      </trkpt>
      <trkpt lat="37.57094671949744" lon="127.03415505588055">
        <ele>23.15</ele>
      </trkpt>
      <trkpt lat="37.57109994068742" lon="127.03436996787786">
        <ele>23.11</ele>
      </trkpt>
      <trkpt lat="37.57123002782464" lon="127.03459342941642">
        <ele>23.04</ele>
      </trkpt>
      <trkpt lat="37.57136011496186" lon="127.03481689095497">
        <ele>23.02</ele>
      </trkpt>
      <trkpt lat="37.57148995064199" lon="127.03503993339837">
        <ele>23.06</ele>
      </trkpt>
      <trkpt lat="37.57157008163631" lon="127.03523523174226">
        <ele>23.03</ele>
      </trkpt>
      <trkpt lat="37.571649961173534" lon="127.03542994335294">
        <ele>22.99</ele>
      </trkpt>
      <trkpt lat="37.57172992452979" lon="127.03568994998932">
        <ele>23.08</ele>
      </trkpt>
      <trkpt lat="37.57177007384598" lon="127.03593545593321">
        <ele>23.03</ele>
      </trkpt>
      <trkpt lat="37.57180997170508" lon="127.03617995604873">
        <ele>22.87</ele>
      </trkpt>
      <trkpt lat="37.57180997170508" lon="127.03616998158395">
        <ele>22.75</ele>
      </trkpt>
      <trkpt lat="37.57187996059656" lon="127.03654993325472">
        <ele>22.43</ele>
      </trkpt>
      <trkpt lat="37.57191499695182" lon="127.03683550469577">
        <ele>22.16</ele>
      </trkpt>
      <trkpt lat="37.571949949488044" lon="127.03711998648942">
        <ele>22.02</ele>
      </trkpt>
      <trkpt lat="37.571969982236624" lon="127.03740052878857">
        <ele>21.89</ele>
      </trkpt>
      <trkpt lat="37.57198993116617" lon="127.0376799814403">
        <ele>21.71</ele>
      </trkpt>
      <trkpt lat="37.572019938379526" lon="127.03773999586701">
        <ele>21.6</ele>
      </trkpt>
      <trkpt lat="37.572079952806234" lon="127.03776991926134">
        <ele>21.5</ele>
      </trkpt>
      <trkpt lat="37.572059920057654" lon="127.03775994479656">
        <ele>21.44</ele>
      </trkpt>
      <trkpt lat="37.57227952592075" lon="127.03776991926134">
        <ele>21.42</ele>
      </trkpt>
      <trkpt lat="37.57249996997416" lon="127.03777997754514">
        <ele>21.41</ele>
      </trkpt>
      <trkpt lat="37.57257993333042" lon="127.03770998865366">
        <ele>21.47</ele>
      </trkpt>
      <trkpt lat="37.572639947757125" lon="127.03757998533547">
        <ele>21.55</ele>
      </trkpt>
      <trkpt lat="37.5726499222219" lon="127.03740991652012">
        <ele>21.66</ele>
      </trkpt>
      <trkpt lat="37.57262997329235" lon="127.03715996816754">
        <ele>21.66</ele>
      </trkpt>
      <trkpt lat="37.57262997329235" lon="127.03716994263232">
        <ele>21.69</ele>
      </trkpt>
      <trkpt lat="37.572596529498696" lon="127.03687272034585">
        <ele>21.61</ele>
      </trkpt>
      <trkpt lat="37.572563169524074" lon="127.03657541424036">
        <ele>21.62</ele>
      </trkpt>
      <trkpt lat="37.572529977187514" lon="127.03627995215356">
        <ele>21.8</ele>
      </trkpt>
      <trkpt lat="37.57243995554745" lon="127.03597996383905">
        <ele>21.89</ele>
      </trkpt>
      <trkpt lat="37.57233979180455" lon="127.03567452728748">
        <ele>21.89</ele>
      </trkpt>
      <trkpt lat="37.57223996333778" lon="127.03536992892623">
        <ele>22.0</ele>
      </trkpt>
      <trkpt lat="37.57223996333778" lon="127.03535995446146">
        <ele>22.13</ele>
      </trkpt>
      <trkpt lat="37.572099985554814" lon="127.03502995893359">
        <ele>22.3</ele>
      </trkpt>
      <trkpt lat="37.571999905630946" lon="127.03482979908586">
        <ele>22.48</ele>
      </trkpt>
      <trkpt lat="37.57189999334514" lon="127.03462997451425">
        <ele>22.56</ele>
      </trkpt>
      <trkpt lat="37.571889935061336" lon="127.03461991623044">
        <ele>22.74</ele>
      </trkpt>
      <trkpt lat="37.571719866245985" lon="127.03433979302645">
        <ele>22.87</ele>
      </trkpt>
      <trkpt lat="37.5715499650687" lon="127.03405992127955">
        <ele>23.12</ele>
      </trkpt>
      <trkpt lat="37.57142993621528" lon="127.03388490714133">
        <ele>23.37</ele>
      </trkpt>
      <trkpt lat="37.5713099911809" lon="127.03370997682214">
        <ele>23.66</ele>
      </trkpt>
      <trkpt lat="37.5713099911809" lon="127.03369991853833">
        <ele>23.85</ele>
      </trkpt>
      <trkpt lat="37.571139922365546" lon="127.03345994465053">
        <ele>24.29</ele>
      </trkpt>
      <trkpt lat="37.57096993736923" lon="127.03321997076273">
        <ele>24.62</ele>
      </trkpt>
      <trkpt lat="37.57079995237291" lon="127.0329799130559">
        <ele>24.62</ele>
      </trkpt>
      <trkpt lat="37.57062996737659" lon="127.0327399391681">
        <ele>24.49</ele>
      </trkpt>
      <trkpt lat="37.57050993852317" lon="127.03253994695842">
        <ele>24.45</ele>
      </trkpt>
      <trkpt lat="37.5704999640584" lon="127.03252997249365">
        <ele>24.43</ele>
      </trkpt>
      <trkpt lat="37.57032997906208" lon="127.03221992589533">
        <ele>24.4</ele>
      </trkpt>
      <trkpt lat="37.57024993188679" lon="127.03201993368566">
        <ele>24.31</ele>
      </trkpt>
      <trkpt lat="37.57017985917628" lon="127.0317895989865">
        <ele>24.17</ele>
      </trkpt>
      <trkpt lat="37.57010995410383" lon="127.0315599348396">
        <ele>23.99</ele>
      </trkpt>
      <trkpt lat="37.5700699724257" lon="127.03123999759555">
        <ele>23.68</ele>
      </trkpt>
      <trkpt lat="37.5700699724257" lon="127.03124997206032">
        <ele>23.46</ele>
      </trkpt>
      <trkpt lat="37.57002999074757" lon="127.03090991824865">
        <ele>23.11</ele>
      </trkpt>
      <trkpt lat="37.57002999074757" lon="127.03061437234282">
        <ele>22.88</ele>
      </trkpt>
      <trkpt lat="37.57002999074757" lon="127.03031999990344">
        <ele>22.61</ele>
      </trkpt>
      <trkpt lat="37.570059997960925" lon="127.03016996383667">
        <ele>22.29</ele>
      </trkpt>
      <trkpt lat="37.57015010342002" lon="127.02982437796891">
        <ele>21.96</ele>
      </trkpt>
      <trkpt lat="37.57023995742202" lon="127.02947996556759">
        <ele>21.8</ele>
      </trkpt>
      <trkpt lat="37.570332577452064" lon="127.02914695255458">
        <ele>21.6</ele>
      </trkpt>
      <trkpt lat="37.570424946025014" lon="127.02881494536996">
        <ele>21.37</ele>
      </trkpt>
      <trkpt lat="37.57051764987409" lon="127.02848193235695">
        <ele>21.22</ele>
      </trkpt>
      <trkpt lat="37.57060993462801" lon="127.02814992517233">
        <ele>21.06</ele>
      </trkpt>
      <trkpt lat="37.570708421990275" lon="127.0278094522655">
        <ele>20.9</ele>
      </trkpt>
      <trkpt lat="37.57080690935254" lon="127.02746889553964">
        <ele>20.81</ele>
      </trkpt>
      <trkpt lat="37.57090497761965" lon="127.02712993137538">
        <ele>20.8</ele>
      </trkpt>
      <trkpt lat="37.571003464981914" lon="127.02678945846856">
        <ele>20.86</ele>
      </trkpt>
      <trkpt lat="37.57110195234418" lon="127.0264489017427">
        <ele>20.93</ele>
      </trkpt>
      <trkpt lat="37.571199936792254" lon="127.02610993757844">
        <ele>20.82</ele>
      </trkpt>
      <trkpt lat="37.57118996232748" lon="127.02611999586225">
        <ele>20.89</ele>
      </trkpt>
      <trkpt lat="37.57126229815185" lon="127.02586954459548">
        <ele>20.84</ele>
      </trkpt>
      <trkpt lat="37.57133463397622" lon="127.02561917714775">
        <ele>20.82</ele>
      </trkpt>
      <trkpt lat="37.571406634524465" lon="127.02536998316646">
        <ele>20.96</ele>
      </trkpt>
      <trkpt lat="37.571478970348835" lon="127.02511953189969">
        <ele>21.16</ele>
      </trkpt>
      <trkpt lat="37.571551306173205" lon="127.02486916445196">
        <ele>21.47</ele>
      </trkpt>
      <trkpt lat="37.57162330672145" lon="127.02461997047067">
        <ele>21.8</ele>
      </trkpt>
      <trkpt lat="37.57169564254582" lon="127.02436960302293">
        <ele>22.16</ele>
      </trkpt>
      <trkpt lat="37.57176797837019" lon="127.02411915175617">
        <ele>22.38</ele>
      </trkpt>
      <trkpt lat="37.57183997891843" lon="127.02386995777488">
        <ele>22.64</ele>
      </trkpt>
      <trkpt lat="37.57183997891843" lon="127.0238599833101">
        <ele>22.89</ele>
      </trkpt>
      <trkpt lat="37.57191005162895" lon="127.02360450290143">
        <ele>23.12</ele>
      </trkpt>
      <trkpt lat="37.5719799567014" lon="127.02334994450212">
        <ele>23.41</ele>
      </trkpt>
      <trkpt lat="37.57203343324363" lon="127.02300595119596">
        <ele>23.63</ele>
      </trkpt>
      <trkpt lat="37.572086825966835" lon="127.0226619578898">
        <ele>23.75</ele>
      </trkpt>
      <trkpt lat="37.57213996723294" lon="127.0223199762404">
        <ele>23.82</ele>
      </trkpt>
      <trkpt lat="37.57215999998152" lon="127.0219399407506">
        <ele>24.08</ele>
      </trkpt>
      <trkpt lat="37.57213988341391" lon="127.02170449309051">
        <ele>24.36</ele>
      </trkpt>
      <trkpt lat="37.57211993448436" lon="127.02146996743977">
        <ele>24.71</ele>
      </trkpt>
      <trkpt lat="37.57211993448436" lon="127.02148991636932">
        <ele>24.87</ele>
      </trkpt>
      <trkpt lat="37.57210996001959" lon="127.02123996801674">
        <ele>25.17</ele>
      </trkpt>
      <trkpt lat="37.57204315625131" lon="127.02091600745916">
        <ele>25.55</ele>
      </trkpt>
      <trkpt lat="37.571976352483034" lon="127.02059213072062">
        <ele>25.64</ele>
      </trkpt>
      <trkpt lat="37.571909967809916" lon="127.0202699303627">
        <ele>25.43</ele>
      </trkpt>
      <trkpt lat="37.57181994616985" lon="127.02005996368825">
        <ele>25.36</ele>
      </trkpt>
      <trkpt lat="37.57180997170508" lon="127.02003993093967">
        <ele>25.38</ele>
      </trkpt>
      <trkpt lat="37.57168985903263" lon="127.01976969838142">
        <ele>25.38</ele>
      </trkpt>
      <trkpt lat="37.57156999781728" lon="127.01949996873736">
        <ele>25.32</ele>
      </trkpt>
      <trkpt lat="37.57139992900193" lon="127.01918992213905">
        <ele>25.27</ele>
      </trkpt>
      <trkpt lat="37.5712373200804" lon="127.01888976618648">
        <ele>25.29</ele>
      </trkpt>
      <trkpt lat="37.57107496261597" lon="127.01858994551003">
        <ele>25.25</ele>
      </trkpt>
      <trkpt lat="37.57091235369444" lon="127.01828970573843">
        <ele>25.21</ele>
      </trkpt>
      <trkpt lat="37.570749996230006" lon="127.01798996888101">
        <ele>25.2</ele>
      </trkpt>
      <trkpt lat="37.570749996230006" lon="127.01797999441624">
        <ele>25.18</ele>
      </trkpt>
      <trkpt lat="37.570599876344204" lon="127.01769970357418">
        <ele>25.17</ele>
      </trkpt>
      <trkpt lat="37.570449924096465" lon="127.01741999946535">
        <ele>25.13</ele>
      </trkpt>
      <trkpt lat="37.57032981142402" lon="127.01712462119758">
        <ele>25.09</ele>
      </trkpt>
      <trkpt lat="37.570209950208664" lon="127.0168299973011">
        <ele>25.18</ele>
      </trkpt>
      <trkpt lat="37.57019997574389" lon="127.01679999008775">
        <ele>25.18</ele>
      </trkpt>
      <trkpt lat="37.5701199285686" lon="127.01653998345137">
        <ele>25.33</ele>
      </trkpt>
      <trkpt lat="37.570064859464765" lon="127.01631459407508">
        <ele>25.4</ele>
      </trkpt>
      <trkpt lat="37.57000995799899" lon="127.01608995907009">
        <ele>25.38</ele>
      </trkpt>
      <trkpt lat="37.57000660523772" lon="127.01576926745474">
        <ele>25.29</ele>
      </trkpt>
      <trkpt lat="37.570003252476454" lon="127.01544865965843">
        <ele>25.33</ele>
      </trkpt>
      <trkpt lat="37.56999998353422" lon="127.01512997969985">
        <ele>25.15</ele>
      </trkpt>
      <trkpt lat="37.56999998353422" lon="127.0150999724865">
        <ele>24.97</ele>
      </trkpt>
      <trkpt lat="37.56999663077295" lon="127.01483443379402">
        <ele>24.63</ele>
      </trkpt>
      <trkpt lat="37.56999327801168" lon="127.01456889510155">
        <ele>24.26</ele>
      </trkpt>
      <trkpt lat="37.56998992525041" lon="127.01430494897068">
        <ele>24.01</ele>
      </trkpt>
      <trkpt lat="37.569986656308174" lon="127.0140394102782">
        <ele>23.85</ele>
      </trkpt>
      <trkpt lat="37.569983303546906" lon="127.01377387158573">
        <ele>23.73</ele>
      </trkpt>
      <trkpt lat="37.56997995078564" lon="127.01350992545485">
        <ele>23.69</ele>
      </trkpt>
      <trkpt lat="37.56997995078564" lon="127.0134799182415">
        <ele>23.72</ele>
      </trkpt>
      <trkpt lat="37.569974921643734" lon="127.01319434680045">
        <ele>23.8</ele>
      </trkpt>
      <trkpt lat="37.56996997632086" lon="127.01290877535939">
        <ele>24.0</ele>
      </trkpt>
      <trkpt lat="37.56996494717896" lon="127.012624964118">
        <ele>24.14</ele>
      </trkpt>
      <trkpt lat="37.56995991803706" lon="127.01233939267695">
        <ele>24.35</ele>
      </trkpt>
      <trkpt lat="37.569954972714186" lon="127.01205373741686">
        <ele>24.77</ele>
      </trkpt>
      <trkpt lat="37.56994994357228" lon="127.01176992617548">
        <ele>25.28</ele>
      </trkpt>
      <trkpt lat="37.56994994357228" lon="127.01177998445928">
        <ele>25.75</ele>
      </trkpt>
      <trkpt lat="37.56994994357228" lon="127.01142425648868">
        <ele>26.36</ele>
      </trkpt>
      <trkpt lat="37.56994994357228" lon="127.01106995344162">
        <ele>27.07</ele>
      </trkpt>
      <trkpt lat="37.56994994357228" lon="127.01071422547102">
        <ele>27.84</ele>
      </trkpt>
      <trkpt lat="37.56994994357228" lon="127.01035992242396">
        <ele>28.5</ele>
      </trkpt>
      <trkpt lat="37.56994994357228" lon="127.01036998070776">
        <ele>29.15</ele>
      </trkpt>
      <trkpt lat="37.569954972714186" lon="127.01004928909242">
        <ele>29.8</ele>
      </trkpt>
      <trkpt lat="37.56995991803706" lon="127.00972993858159">
        <ele>30.44</ele>
      </trkpt>
      <trkpt lat="37.56994994357228" lon="127.0093599613756">
        <ele>31.13</ele>
      </trkpt>
      <trkpt lat="37.56993996910751" lon="127.00933992862701">
        <ele>31.75</ele>
      </trkpt>
      <trkpt lat="37.56992245092988" lon="127.00904932804406">
        <ele>32.37</ele>
      </trkpt>
      <trkpt lat="37.56990493275225" lon="127.00875998474658">
        <ele>33.02</ele>
      </trkpt>
      <trkpt lat="37.56988741457462" lon="127.00846938416362">
        <ele>33.8</ele>
      </trkpt>
      <trkpt lat="37.569869980216026" lon="127.0081799570471">
        <ele>34.35</ele>
      </trkpt>
      <trkpt lat="37.569869980216026" lon="127.00816998258233">
        <ele>34.66</ele>
      </trkpt>
      <trkpt lat="37.56985656917095" lon="127.00782925821841">
        <ele>34.72</ele>
      </trkpt>
      <trkpt lat="37.56984324194491" lon="127.00748853385448">
        <ele>34.73</ele>
      </trkpt>
      <trkpt lat="37.5698299985379" lon="127.00714998878539">
        <ele>34.77</ele>
      </trkpt>
      <trkpt lat="37.5698299985379" lon="127.00713993050158">
        <ele>34.77</ele>
      </trkpt>
      <trkpt lat="37.56981994025409" lon="127.00678252615035">
        <ele>34.67</ele>
      </trkpt>
      <trkpt lat="37.569809881970286" lon="127.00642512179911">
        <ele>34.48</ele>
      </trkpt>
      <trkpt lat="37.569799991324544" lon="127.00606998056173">
        <ele>34.18</ele>
      </trkpt>
      <trkpt lat="37.569799991324544" lon="127.00603997334838">
        <ele>33.89</ele>
      </trkpt>
      <trkpt lat="37.56979496218264" lon="127.00573931448162">
        <ele>33.51</ele>
      </trkpt>
      <trkpt lat="37.56978993304074" lon="127.00543999671936">
        <ele>33.11</ele>
      </trkpt>
      <trkpt lat="37.56978498771787" lon="127.0051393378526">
        <ele>32.8</ele>
      </trkpt>
      <trkpt lat="37.569779958575964" lon="127.00483993627131">
        <ele>32.51</ele>
      </trkpt>
      <trkpt lat="37.569779958575964" lon="127.00484999455512">
        <ele>32.0</ele>
      </trkpt>
      <trkpt lat="37.5697816349566" lon="127.00455939397216">
        <ele>31.37</ele>
      </trkpt>
      <trkpt lat="37.56978331133723" lon="127.00426870957017">
        <ele>30.56</ele>
      </trkpt>
      <trkpt lat="37.56978498771787" lon="127.00397995300591">
        <ele>29.78</ele>
      </trkpt>
      <trkpt lat="37.5697866640985" lon="127.00368935242295">
        <ele>29.2</ele>
      </trkpt>
      <trkpt lat="37.569788340479136" lon="127.00339875184">
        <ele>28.68</ele>
      </trkpt>
      <trkpt lat="37.56978993304074" lon="127.00310999527574">
        <ele>28.14</ele>
      </trkpt>
      <trkpt lat="37.56978993304074" lon="127.00312994420528">
        <ele>27.7</ele>
      </trkpt>
      <trkpt lat="37.56978331133723" lon="127.00280263088644">
        <ele>27.27</ele>
      </trkpt>
      <trkpt lat="37.569776605814695" lon="127.00247523374856">
        <ele>26.92</ele>
      </trkpt>
      <trkpt lat="37.56976998411119" lon="127.00214993208647">
        <ele>26.62</ele>
      </trkpt>
      <trkpt lat="37.56976998411119" lon="127.00211992487311">
        <ele>26.37</ele>
      </trkpt>
      <trkpt lat="37.569739976897836" lon="127.0018199365586">
        <ele>26.1</ele>
      </trkpt>
      <trkpt lat="37.56969488225877" lon="127.00153939425945">
        <ele>25.98</ele>
      </trkpt>
      <trkpt lat="37.56964995525777" lon="127.00125994160771">
        <ele>26.01</ele>
      </trkpt>
      <trkpt lat="37.56958985701203" lon="127.0009393338114">
        <ele>26.11</ele>
      </trkpt>
      <trkpt lat="37.56952992640436" lon="127.00061998330057">
        <ele>26.12</ele>
      </trkpt>
      <trkpt lat="37.56946982815862" lon="127.00029937550426">
        <ele>26.07</ele>
      </trkpt>
      <trkpt lat="37.56940998136997" lon="126.99997994117439">
        <ele>25.96</ele>
      </trkpt>
      <trkpt lat="37.56940998136997" lon="126.99996996670961">
        <ele>25.96</ele>
      </trkpt>
      <trkpt lat="37.569339824840426" lon="126.99962932616472">
        <ele>25.92</ele>
      </trkpt>
      <trkpt lat="37.569269919767976" lon="126.9992899429053">
        <ele>25.9</ele>
      </trkpt>
      <trkpt lat="37.5692599453032" lon="126.99926999397576">
        <ele>25.95</ele>
      </trkpt>
      <trkpt lat="37.56919984705746" lon="126.99899280443788">
        <ele>26.2</ele>
      </trkpt>
      <trkpt lat="37.56913974881172" lon="126.9987156149">
        <ele>26.41</ele>
      </trkpt>
      <trkpt lat="37.56907998584211" lon="126.99843993410468">
        <ele>26.38</ele>
      </trkpt>
      <trkpt lat="37.5690165348351" lon="126.99808261357248">
        <ele>26.16</ele>
      </trkpt>
      <trkpt lat="37.56895308382809" lon="126.99772529304028">
        <ele>26.07</ele>
      </trkpt>
      <trkpt lat="37.56888996809721" lon="126.99736998416483">
        <ele>26.13</ele>
      </trkpt>
      <trkpt lat="37.56888996809721" lon="126.99735992588103">
        <ele>26.21</ele>
      </trkpt>
      <trkpt lat="37.56884990260005" lon="126.99699925258756">
        <ele>26.38</ele>
      </trkpt>
      <trkpt lat="37.56880992092192" lon="126.9966399203986">
        <ele>26.46</ele>
      </trkpt>
      <trkpt lat="37.56880992092192" lon="126.99660999700427">
        <ele>26.58</ele>
      </trkpt>
      <trkpt lat="37.5687799975276" lon="126.99635996483266">
        <ele>26.64</ele>
      </trkpt>
      <trkpt lat="37.56876993924379" lon="126.99608436785638">
        <ele>26.79</ele>
      </trkpt>
      <trkpt lat="37.56875996477902" lon="126.99580994434655">
        <ele>27.06</ele>
      </trkpt>
      <trkpt lat="37.56875996477902" lon="126.9957799371332">
        <ele>27.29</ele>
      </trkpt>
      <trkpt lat="37.56874328479171" lon="126.99549604207277">
        <ele>27.65</ele>
      </trkpt>
      <trkpt lat="37.568726520985365" lon="126.99521214701235">
        <ele>27.9</ele>
      </trkpt>
      <trkpt lat="37.568709924817085" lon="126.99492992833257">
        <ele>28.07</ele>
      </trkpt>
      <trkpt lat="37.568693244829774" lon="126.99464603327215">
        <ele>28.27</ele>
      </trkpt>
      <trkpt lat="37.56867656484246" lon="126.99436213821173">
        <ele>28.49</ele>
      </trkpt>
      <trkpt lat="37.56865996867418" lon="126.99407991953194">
        <ele>28.61</ele>
      </trkpt>
      <trkpt lat="37.56864999420941" lon="126.99404999613762">
        <ele>28.73</ele>
      </trkpt>
      <trkpt lat="37.568633230403066" lon="126.99376937001944">
        <ele>28.84</ele>
      </trkpt>
      <trkpt lat="37.568616550415754" lon="126.99348882772028">
        <ele>28.93</ele>
      </trkpt>
      <trkpt lat="37.568599954247475" lon="126.99320996180177">
        <ele>28.96</ele>
      </trkpt>
      <trkpt lat="37.56858327426016" lon="126.99292941950262">
        <ele>28.99</ele>
      </trkpt>
      <trkpt lat="37.56856659427285" lon="126.99264879338443">
        <ele>29.03</ele>
      </trkpt>
      <trkpt lat="37.56854999810457" lon="126.99236992746592">
        <ele>29.12</ele>
      </trkpt>
      <trkpt lat="37.56850984878838" lon="126.99199416674674">
        <ele>29.33</ele>
      </trkpt>
      <trkpt lat="37.568469950929284" lon="126.99161999858916">
        <ele>29.67</ele>
      </trkpt>
      <trkpt lat="37.568469950929284" lon="126.9915899913758">
        <ele>29.93</ele>
      </trkpt>
      <trkpt lat="37.5684398598969" lon="126.9912292342633">
        <ele>30.45</ele>
      </trkpt>
      <trkpt lat="37.568409936502576" lon="126.99086998589337">
        <ele>30.83</ele>
      </trkpt>
      <trkpt lat="37.56837992928922" lon="126.99050922878087">
        <ele>30.99</ele>
      </trkpt>
      <trkpt lat="37.56834992207587" lon="126.99014998041093">
        <ele>31.15</ele>
      </trkpt>
      <trkpt lat="37.568333242088556" lon="126.98986935429275">
        <ele>31.5</ele>
      </trkpt>
      <trkpt lat="37.568316562101245" lon="126.9895888119936">
        <ele>32.08</ele>
      </trkpt>
      <trkpt lat="37.568299965932965" lon="126.98930994607508">
        <ele>32.88</ele>
      </trkpt>
      <trkpt lat="37.568299965932965" lon="126.98927993886173">
        <ele>33.7</ele>
      </trkpt>
      <trkpt lat="37.56828990764916" lon="126.989074498415">
        <ele>34.7</ele>
      </trkpt>
      <trkpt lat="37.568279933184385" lon="126.98886997997761">
        <ele>35.84</ele>
      </trkpt>
      <trkpt lat="37.56828496232629" lon="126.98848667554557">
        <ele>37.42</ele>
      </trkpt>
      <trkpt lat="37.56828999146819" lon="126.98810496367514">
        <ele>38.53</ele>
      </trkpt>
      <trkpt lat="37.56829493679106" lon="126.9877216592431">
        <ele>38.88</ele>
      </trkpt>
      <trkpt lat="37.568299965932965" lon="126.98733994737267">
        <ele>38.98</ele>
      </trkpt>
      <trkpt lat="37.56833500228822" lon="126.9869692157954">
        <ele>38.85</ele>
      </trkpt>
      <trkpt lat="37.56836995482445" lon="126.98659999296069">
        <ele>38.9</ele>
      </trkpt>
      <trkpt lat="37.568425023928285" lon="126.98629438877106">
        <ele>39.28</ele>
      </trkpt>
      <trkpt lat="37.56847992539406" lon="126.98598995804787">
        <ele>39.99</ele>
      </trkpt>
      <trkpt lat="37.56854756735265" lon="126.98564680293202">
        <ele>40.77</ele>
      </trkpt>
      <trkpt lat="37.56861495785415" lon="126.98530498892069">
        <ele>41.49</ele>
      </trkpt>
      <trkpt lat="37.568682599812746" lon="126.98496183380485">
        <ele>42.49</ele>
      </trkpt>
      <trkpt lat="37.568749990314245" lon="126.98461993597448">
        <ele>43.81</ele>
      </trkpt>
      <trkpt lat="37.56880003027618" lon="126.98430435732007">
        <ele>45.0</ele>
      </trkpt>
      <trkpt lat="37.56884998641908" lon="126.9839899521321">
        <ele>46.37</ele>
      </trkpt>
      <trkpt lat="37.56891343742609" lon="126.98363933712244">
        <ele>47.47</ele>
      </trkpt>
      <trkpt lat="37.5689768884331" lon="126.98328863829374">
        <ele>47.75</ele>
      </trkpt>
      <trkpt lat="37.56903992034495" lon="126.9829399511218">
        <ele>48.63</ele>
      </trkpt>
      <trkpt lat="37.56903992034495" lon="126.98291991837323">
        <ele>49.49</ele>
      </trkpt>
      <trkpt lat="37.5690699275583" lon="126.98277994059026">
        <ele>50.43</ele>
      </trkpt>
      <trkpt lat="37.56908778101206" lon="126.98250719346106">
        <ele>51.34</ele>
      </trkpt>
      <trkpt lat="37.56910555064678" lon="126.98223436251283">
        <ele>51.96</ele>
      </trkpt>
      <trkpt lat="37.569123320281506" lon="126.98196329176426">
        <ele>52.18</ele>
      </trkpt>
      <trkpt lat="37.56914108991623" lon="126.98169054463506">
        <ele>52.24</ele>
      </trkpt>
      <trkpt lat="37.569158943369985" lon="126.98141771368682">
        <ele>51.95</ele>
      </trkpt>
      <trkpt lat="37.56917662918568" lon="126.98114664293826">
        <ele>51.08</ele>
      </trkpt>
      <trkpt lat="37.56919448263943" lon="126.98087381199002">
        <ele>49.7</ele>
      </trkpt>
      <trkpt lat="37.569212252274156" lon="126.98060106486082">
        <ele>48.54</ele>
      </trkpt>
      <trkpt lat="37.56922993808985" lon="126.98032999411225">
        <ele>48.5</ele>
      </trkpt>
      <trkpt lat="37.56922993808985" lon="126.98030996136367">
        <ele>49.2</ele>
      </trkpt>
      <trkpt lat="37.56924997083843" lon="126.97997258976102">
        <ele>50.1</ele>
      </trkpt>
      <trkpt lat="37.56927000358701" lon="126.97963521815836">
        <ele>52.75</ele>
      </trkpt>
      <trkpt lat="37.569289952516556" lon="126.9792999420315">
        <ele>54.15</ele>
      </trkpt>
      <trkpt lat="37.569269919767976" lon="126.9792999420315">
        <ele>55.11</ele>
      </trkpt>
      <trkpt lat="37.56905710324645" lon="126.97928661480546">
        <ele>56.37</ele>
      </trkpt>
      <trkpt lat="37.56884420290589" lon="126.97927337139845">
        <ele>57.97</ele>
      </trkpt>
      <trkpt lat="37.56862996146083" lon="126.97925996035337">
        <ele>60.36</ele>
      </trkpt>
      <trkpt lat="37.56884998641908" lon="126.97926993481815">
        <ele>62.07</ele>
      </trkpt>
      <trkpt lat="37.5686071626842" lon="126.97926331311464">
        <ele>65.79</ele>
      </trkpt>
      <trkpt lat="37.56836433894932" lon="126.97925669141114">
        <ele>69.33</ele>
      </trkpt>
      <trkpt lat="37.56811992265284" lon="126.9792499858886">
        <ele>71.31</ele>
      </trkpt>
    </trkseg>
  </trk>
</gpx>
